{"type":"FeatureCollection","features":[{"type":"Feature","properties":{"huc2":"14","name":"Upper Colorado Region"},"geometry":{"type":"Polygon","coordinates":[[[-110.038,43.451],[-110.089,43.443],[-110.098,43.407],[-110.108,43.38],[-110.145,43.374],[-110.19,43.37],[-110.213,43.352],[-110.25,43.342],[-110.263,43.316],[-110.234,43.282],[-110.181,43.273],[-110.158,43.236],[-110.191,43.222],[-110.197,43.184],[-110.205,43.139],[-110.22,43.107],[-110.274,43.092],[-110.357,43.067],[-110.467,43.036],[-110.519,42.995],[-110.555,42.968],[-110.576,43.0],[-110.632,42.997],[-110.633,42.971],[-110.605,42.945],[-110.619,42.911],[-110.599,42.884],[-110.584,42.851],[-110.582,42.807],[-110.617,42.797],[-110.639,42.784],[-110.635,42.742],[-110.645,42.708],[-110.618,42.659],[-110.628,42.61],[-110.619,42.568],[-110.642,42.533],[-110.701,42.53],[-110.722,42.583],[-110.727,42.548],[-110.706,42.502],[-110.681,42.458],[-110.648,42.416],[-110.635,42.376],[-110.663,42.358],[-110.721,42.337],[-110.769,42.346],[-110.797,42.294],[-110.81,42.263],[-110.806,42.239],[-110.803,42.188],[-110.788,42.154],[-110.797,42.109],[-110.799,42.051],[-110.799,42.023],[-110.793,41.999],[-110.797,41.963],[-110.779,41.938],[-110.733,41.924],[-110.697,41.922],[-110.67,41.887],[-110.626,41.862],[-110.612,41.838],[-110.601,41.815],[-110.609,41.793],[-110.624,41.781],[-110.632,41.765],[-110.621,41.758],[-110.622,41.74],[-110.64,41.735],[-110.655,41.72],[-110.677,41.708],[-110.672,41.693],[-110.689,41.682],[-110.726,41.681],[-110.755,41.689],[-110.774,41.695],[-110.792,41.7],[-110.819,41.704],[-110.846,41.707],[-110.868,41.705],[-110.878,41.69],[-110.899,41.676],[-110.911,41.657],[-110.924,41.635],[-110.921,41.617],[-110.923,41.596],[-110.916,41.576],[-110.89,41.565],[-110.881,41.546],[-110.889,41.53],[-110.882,41.513],[-110.875,41.5],[-110.877,41.478],[-110.886,41.458],[-110.875,41.447],[-110.886,41.428],[-110.9,41.409],[-110.892,41.391],[-110.906,41.371],[-110.908,41.354],[-110.891,41.364],[-110.854,41.368],[-110.824,41.366],[-110.826,41.345],[-110.814,41.332],[-110.831,41.315],[-110.839,41.295],[-110.823,41.285],[-110.803,41.272],[-110.804,41.253],[-110.812,41.235],[-110.815,41.22],[-110.806,41.204],[-110.781,41.213],[-110.774,41.195],[-110.774,41.181],[-110.759,41.182],[-110.725,41.185],[-110.714,41.162],[-110.707,41.147],[-110.708,41.13],[-110.716,41.104],[-110.742,41.09],[-110.745,41.072],[-110.726,41.055],[-110.707,41.038],[-110.711,41.013],[-110.724,40.992],[-110.728,40.975],[-110.702,40.966],[-110.676,40.946],[-110.684,40.911],[-110.696,40.884],[-110.709,40.869],[-110.701,40.841],[-110.686,40.81],[-110.682,40.793],[-110.684,40.784],[-110.684,40.766],[-110.695,40.748],[-110.713,40.753],[-110.728,40.745],[-110.753,40.746],[-110.771,40.734],[-110.79,40.723],[-110.823,40.71],[-110.841,40.722],[-110.868,40.724],[-110.894,40.725],[-110.896,40.713],[-110.905,40.695],[-110.898,40.68],[-110.912,40.652],[-110.923,40.638],[-110.941,40.628],[-110.933,40.606],[-110.94,40.581],[-110.963,40.571],[-110.97,40.564],[-110.952,40.551],[-110.926,40.53],[-110.933,40.519],[-110.951,40.504],[-110.982,40.514],[-110.995,40.503],[-111.03,40.489],[-111.051,40.472],[-111.084,40.465],[-111.109,40.468],[-111.139,40.462],[-111.174,40.446],[-111.18,40.424],[-111.181,40.409],[-111.201,40.408],[-111.226,40.415],[-111.237,40.396],[-111.243,40.373],[-111.242,40.352],[-111.244,40.336],[-111.251,40.314],[-111.251,40.298],[-111.282,40.3],[-111.306,40.298],[-111.308,40.284],[-111.297,40.272],[-111.286,40.263],[-111.271,40.25],[-111.274,40.235],[-111.269,40.216],[-111.257,40.202],[-111.245,40.19],[-111.234,40.175],[-111.226,40.16],[-111.225,40.143],[-111.223,40.126],[-111.229,40.108],[-111.241,40.092],[-111.24,40.073],[-111.244,40.061],[-111.246,40.047],[-111.231,40.036],[-111.212,40.045],[-111.199,40.04],[-111.191,40.027],[-111.172,40.01],[-111.168,39.992],[-111.149,39.985],[-111.135,39.977],[-111.119,39.968],[-111.125,39.954],[-111.119,39.944],[-111.095,39.942],[-111.083,39.927],[-111.099,39.91],[-111.119,39.896],[-111.146,39.893],[-111.15,39.873],[-111.155,39.851],[-111.168,39.833],[-111.177,39.809],[-111.194,39.799],[-111.222,39.811],[-111.235,39.824],[-111.26,39.826],[-111.293,39.84],[-111.31,39.855],[-111.335,39.841],[-111.353,39.833],[-111.357,39.815],[-111.36,39.796],[-111.358,39.781],[-111.339,39.771],[-111.325,39.76],[-111.33,39.748],[-111.332,39.737],[-111.328,39.719],[-111.328,39.704],[-111.318,39.693],[-111.313,39.677],[-111.328,39.666],[-111.331,39.644],[-111.329,39.63],[-111.316,39.624],[-111.312,39.616],[-111.308,39.595],[-111.316,39.575],[-111.306,39.555],[-111.297,39.537],[-111.303,39.516],[-111.311,39.497],[-111.321,39.486],[-111.323,39.469],[-111.324,39.455],[-111.339,39.444],[-111.356,39.436],[-111.359,39.425],[-111.371,39.417],[-111.371,39.401],[-111.384,39.389],[-111.396,39.382],[-111.405,39.373],[-111.424,39.374],[-111.443,39.353],[-111.449,39.33],[-111.448,39.311],[-111.448,39.286],[-111.448,39.267],[-111.451,39.251],[-111.467,39.248],[-111.477,39.231],[-111.482,39.2],[-111.491,39.179],[-111.489,39.16],[-111.486,39.142],[-111.478,39.126],[-111.499,39.119],[-111.498,39.099],[-111.502,39.084],[-111.498,39.068],[-111.516,39.056],[-111.506,39.011],[-111.482,38.998],[-111.451,38.997],[-111.448,38.978],[-111.442,38.963],[-111.451,38.955],[-111.468,38.945],[-111.483,38.928],[-111.498,38.907],[-111.495,38.883],[-111.47,38.87],[-111.476,38.853],[-111.485,38.833],[-111.487,38.813],[-111.477,38.797],[-111.485,38.785],[-111.497,38.767],[-111.523,38.764],[-111.536,38.76],[-111.564,38.752],[-111.576,38.736],[-111.593,38.734],[-111.625,38.742],[-111.639,38.727],[-111.645,38.716],[-111.653,38.716],[-111.676,38.717],[-111.695,38.701],[-111.702,38.678],[-111.709,38.653],[-111.725,38.626],[-111.74,38.609],[-111.739,38.589],[-111.748,38.578],[-111.766,38.561],[-111.764,38.53],[-111.784,38.512],[-111.799,38.503],[-111.814,38.488],[-111.82,38.481],[-111.81,38.476],[-111.821,38.464],[-111.827,38.446],[-111.842,38.428],[-111.855,38.416],[-111.859,38.387],[-111.867,38.374],[-111.882,38.355],[-111.884,38.341],[-111.891,38.325],[-111.894,38.317],[-111.893,38.307],[-111.887,38.286],[-111.876,38.263],[-111.864,38.245],[-111.854,38.214],[-111.862,38.196],[-111.876,38.183],[-111.887,38.152],[-111.878,38.131],[-111.86,38.132],[-111.834,38.126],[-111.83,38.11],[-111.804,38.107],[-111.794,38.088],[-111.752,38.074],[-111.717,38.07],[-111.718,38.051],[-111.718,38.018],[-111.734,37.995],[-111.73,37.973],[-111.745,37.94],[-111.776,37.95],[-111.803,37.965],[-111.836,37.949],[-111.866,37.938],[-111.878,37.923],[-111.886,37.903],[-111.875,37.874],[-111.879,37.842],[-111.886,37.811],[-111.882,37.781],[-111.872,37.76],[-111.865,37.744],[-111.885,37.731],[-111.924,37.721],[-111.948,37.722],[-111.961,37.713],[-111.982,37.711],[-111.999,37.714],[-112.013,37.718],[-112.026,37.731],[-112.04,37.737],[-112.058,37.733],[-112.073,37.714],[-112.09,37.701],[-112.107,37.7],[-112.125,37.687],[-112.14,37.682],[-112.139,37.668],[-112.145,37.653],[-112.16,37.643],[-112.165,37.636],[-112.17,37.623],[-112.17,37.612],[-112.158,37.603],[-112.163,37.596],[-112.178,37.591],[-112.194,37.594],[-112.229,37.589],[-112.234,37.572],[-112.25,37.542],[-112.26,37.524],[-112.262,37.506],[-112.252,37.486],[-112.241,37.473],[-112.252,37.463],[-112.263,37.454],[-112.273,37.443],[-112.29,37.442],[-112.313,37.442],[-112.321,37.422],[-112.329,37.41],[-112.313,37.396],[-112.309,37.383],[-112.297,37.369],[-112.3,37.357],[-112.298,37.347],[-112.307,37.338],[-112.311,37.325],[-112.292,37.322],[-112.282,37.305],[-112.278,37.278],[-112.27,37.256],[-112.245,37.246],[-112.232,37.228],[-112.239,37.214],[-112.217,37.191],[-112.205,37.172],[-112.211,37.152],[-112.225,37.131],[-112.222,37.113],[-112.205,37.109],[-112.188,37.096],[-112.174,37.073],[-112.15,37.063],[-112.118,37.043],[-112.102,37.013],[-112.12,37.0],[-112.116,36.955],[-112.125,36.927],[-112.118,36.904],[-112.117,36.884],[-112.105,36.862],[-112.094,36.862],[-112.087,36.854],[-112.068,36.846],[-112.048,36.831],[-112.038,36.808],[-112.027,36.784],[-112.023,36.776],[-112.016,36.768],[-112.007,36.763],[-111.997,36.761],[-111.986,36.761],[-111.978,36.764],[-111.971,36.763],[-111.962,36.764],[-111.946,36.762],[-111.937,36.76],[-111.932,36.768],[-111.908,36.762],[-111.907,36.755],[-111.904,36.748],[-111.882,36.737],[-111.869,36.739],[-111.861,36.731],[-111.85,36.724],[-111.842,36.719],[-111.828,36.726],[-111.819,36.727],[-111.81,36.734],[-111.804,36.742],[-111.799,36.75],[-111.793,36.757],[-111.791,36.765],[-111.788,36.771],[-111.781,36.774],[-111.773,36.785],[-111.765,36.793],[-111.755,36.802],[-111.748,36.812],[-111.733,36.823],[-111.72,36.829],[-111.709,36.839],[-111.703,36.847],[-111.69,36.851],[-111.683,36.854],[-111.674,36.862],[-111.671,36.87],[-111.664,36.882],[-111.652,36.887],[-111.646,36.884],[-111.642,36.882],[-111.636,36.878],[-111.635,36.873],[-111.622,36.868],[-111.597,36.863],[-111.594,36.858],[-111.591,36.847],[-111.588,36.838],[-111.589,36.832],[-111.589,36.825],[-111.586,36.818],[-111.589,36.807],[-111.591,36.794],[-111.593,36.784],[-111.594,36.774],[-111.594,36.763],[-111.6,36.756],[-111.604,36.751],[-111.608,36.745],[-111.605,36.738],[-111.61,36.732],[-111.613,36.724],[-111.619,36.711],[-111.62,36.705],[-111.626,36.705],[-111.633,36.698],[-111.625,36.683],[-111.611,36.659],[-111.598,36.649],[-111.589,36.643],[-111.58,36.631],[-111.567,36.635],[-111.56,36.629],[-111.558,36.618],[-111.56,36.61],[-111.575,36.598],[-111.576,36.592],[-111.574,36.587],[-111.562,36.587],[-111.562,36.58],[-111.561,36.572],[-111.557,36.558],[-111.559,36.548],[-111.562,36.537],[-111.557,36.53],[-111.548,36.532],[-111.542,36.541],[-111.539,36.548],[-111.529,36.552],[-111.527,36.562],[-111.52,36.571],[-111.514,36.579],[-111.503,36.593],[-111.492,36.599],[-111.485,36.604],[-111.479,36.61],[-111.476,36.619],[-111.466,36.624],[-111.453,36.629],[-111.444,36.627],[-111.432,36.627],[-111.425,36.618],[-111.423,36.611],[-111.417,36.6],[-111.409,36.598],[-111.397,36.596],[-111.394,36.59],[-111.391,36.581],[-111.389,36.572],[-111.384,36.564],[-111.38,36.556],[-111.379,36.551],[-111.375,36.54],[-111.373,36.532],[-111.367,36.521],[-111.361,36.524],[-111.355,36.53],[-111.351,36.536],[-111.343,36.54],[-111.339,36.536],[-111.336,36.529],[-111.334,36.521],[-111.329,36.515],[-111.328,36.51],[-111.324,36.503],[-111.317,36.508],[-111.313,36.516],[-111.314,36.524],[-111.306,36.531],[-111.299,36.52],[-111.286,36.52],[-111.284,36.528],[-111.288,36.536],[-111.28,36.536],[-111.262,36.532],[-111.257,36.541],[-111.247,36.541],[-111.238,36.538],[-111.233,36.536],[-111.225,36.537],[-111.218,36.535],[-111.211,36.534],[-111.206,36.534],[-111.194,36.536],[-111.186,36.541],[-111.177,36.536],[-111.171,36.535],[-111.166,36.537],[-111.162,36.539],[-111.159,36.544],[-111.153,36.541],[-111.149,36.547],[-111.146,36.549],[-111.145,36.544],[-111.147,36.529],[-111.143,36.524],[-111.134,36.526],[-111.123,36.525],[-111.111,36.518],[-111.101,36.509],[-111.086,36.499],[-111.074,36.499],[-111.059,36.502],[-111.043,36.507],[-111.031,36.515],[-111.014,36.524],[-111.008,36.532],[-110.999,36.53],[-110.988,36.531],[-110.972,36.537],[-110.957,36.544],[-110.954,36.551],[-110.944,36.557],[-110.937,36.563],[-110.934,36.57],[-110.934,36.577],[-110.932,36.583],[-110.925,36.589],[-110.915,36.591],[-110.906,36.59],[-110.897,36.589],[-110.878,36.585],[-110.864,36.591],[-110.855,36.597],[-110.835,36.606],[-110.816,36.603],[-110.805,36.609],[-110.805,36.619],[-110.799,36.63],[-110.796,36.645],[-110.778,36.656],[-110.762,36.666],[-110.751,36.671],[-110.733,36.684],[-110.726,36.691],[-110.715,36.701],[-110.704,36.714],[-110.698,36.722],[-110.69,36.733],[-110.682,36.744],[-110.676,36.756],[-110.674,36.769],[-110.664,36.781],[-110.642,36.79],[-110.626,36.779],[-110.61,36.775],[-110.598,36.788],[-110.584,36.794],[-110.575,36.788],[-110.571,36.775],[-110.567,36.768],[-110.575,36.753],[-110.587,36.741],[-110.58,36.729],[-110.57,36.717],[-110.562,36.708],[-110.551,36.7],[-110.555,36.687],[-110.548,36.685],[-110.543,36.68],[-110.538,36.671],[-110.523,36.667],[-110.519,36.66],[-110.514,36.655],[-110.513,36.641],[-110.51,36.628],[-110.505,36.615],[-110.499,36.604],[-110.492,36.584],[-110.501,36.56],[-110.492,36.551],[-110.471,36.561],[-110.462,36.583],[-110.456,36.602],[-110.445,36.619],[-110.427,36.629],[-110.417,36.636],[-110.408,36.644],[-110.392,36.648],[-110.368,36.649],[-110.355,36.649],[-110.343,36.652],[-110.331,36.661],[-110.324,36.657],[-110.318,36.652],[-110.31,36.645],[-110.302,36.646],[-110.29,36.646],[-110.279,36.65],[-110.265,36.651],[-110.258,36.648],[-110.255,36.635],[-110.246,36.628],[-110.242,36.618],[-110.242,36.61],[-110.238,36.599],[-110.225,36.59],[-110.211,36.587],[-110.204,36.572],[-110.213,36.554],[-110.215,36.542],[-110.214,36.532],[-110.206,36.53],[-110.196,36.514],[-110.181,36.503],[-110.168,36.488],[-110.151,36.485],[-110.137,36.474],[-110.117,36.469],[-110.095,36.47],[-110.084,36.465],[-110.076,36.459],[-110.064,36.453],[-110.055,36.456],[-110.056,36.464],[-110.046,36.457],[-110.038,36.471],[-110.035,36.48],[-110.026,36.474],[-110.018,36.47],[-110.009,36.466],[-110.008,36.457],[-109.99,36.452],[-109.971,36.444],[-109.958,36.432],[-109.948,36.421],[-109.929,36.422],[-109.931,36.409],[-109.931,36.399],[-109.923,36.39],[-109.913,36.385],[-109.901,36.386],[-109.884,36.383],[-109.874,36.374],[-109.864,36.377],[-109.853,36.379],[-109.845,36.379],[-109.84,36.378],[-109.835,36.375],[-109.841,36.365],[-109.833,36.353],[-109.83,36.34],[-109.828,36.33],[-109.826,36.321],[-109.819,36.312],[-109.811,36.301],[-109.808,36.293],[-109.812,36.274],[-109.816,36.262],[-109.829,36.253],[-109.835,36.24],[-109.847,36.226],[-109.849,36.208],[-109.858,36.199],[-109.868,36.195],[-109.878,36.19],[-109.884,36.185],[-109.891,36.174],[-109.901,36.167],[-109.912,36.159],[-109.92,36.15],[-109.915,36.142],[-109.927,36.132],[-109.931,36.126],[-109.936,36.122],[-109.944,36.121],[-109.955,36.112],[-109.958,36.108],[-109.959,36.103],[-109.959,36.093],[-109.954,36.085],[-109.953,36.069],[-109.95,36.056],[-109.95,36.048],[-109.947,36.041],[-109.939,36.04],[-109.931,36.038],[-109.925,36.034],[-109.915,36.032],[-109.907,36.028],[-109.905,36.019],[-109.901,36.01],[-109.901,35.998],[-109.897,35.992],[-109.889,35.984],[-109.885,35.972],[-109.877,35.965],[-109.868,35.942],[-109.869,35.931],[-109.865,35.919],[-109.857,35.9],[-109.855,35.891],[-109.838,35.882],[-109.835,35.872],[-109.835,35.869],[-109.831,35.861],[-109.841,35.854],[-109.855,35.851],[-109.856,35.845],[-109.855,35.831],[-109.854,35.82],[-109.847,35.813],[-109.842,35.805],[-109.831,35.798],[-109.812,35.794],[-109.802,35.795],[-109.793,35.787],[-109.796,35.78],[-109.79,35.772],[-109.783,35.77],[-109.773,35.766],[-109.765,35.763],[-109.752,35.753],[-109.74,35.758],[-109.726,35.757],[-109.719,35.751],[-109.717,35.737],[-109.697,35.739],[-109.687,35.752],[-109.68,35.76],[-109.672,35.764],[-109.664,35.767],[-109.662,35.768],[-109.66,35.751],[-109.657,35.746],[-109.646,35.745],[-109.623,35.742],[-109.613,35.751],[-109.597,35.758],[-109.587,35.766],[-109.576,35.777],[-109.575,35.783],[-109.561,35.794],[-109.554,35.807],[-109.542,35.818],[-109.53,35.799],[-109.518,35.797],[-109.512,35.794],[-109.502,35.796],[-109.489,35.804],[-109.476,35.812],[-109.458,35.823],[-109.441,35.816],[-109.427,35.825],[-109.418,35.834],[-109.408,35.846],[-109.39,35.86],[-109.375,35.873],[-109.357,35.885],[-109.344,35.895],[-109.323,35.897],[-109.31,35.892],[-109.286,35.894],[-109.27,35.898],[-109.26,35.882],[-109.251,35.887],[-109.232,35.889],[-109.21,35.883],[-109.2,35.892],[-109.187,35.911],[-109.166,35.93],[-109.158,35.939],[-109.136,35.945],[-109.119,35.955],[-109.104,35.968],[-109.098,35.98],[-109.092,35.99],[-109.095,36.0],[-109.099,36.006],[-109.083,36.018],[-109.054,36.031],[-109.038,36.026],[-109.03,36.012],[-109.019,35.998],[-109.025,35.989],[-109.018,35.988],[-109.007,35.988],[-108.998,35.985],[-108.991,35.989],[-108.984,35.988],[-108.98,35.984],[-108.977,35.982],[-108.972,35.981],[-108.965,35.984],[-108.959,35.985],[-108.953,35.985],[-108.946,35.987],[-108.944,35.993],[-108.938,36.001],[-108.933,36.001],[-108.925,36.002],[-108.917,36.013],[-108.91,36.019],[-108.904,36.026],[-108.903,36.036],[-108.895,36.049],[-108.892,36.057],[-108.891,36.065],[-108.882,36.064],[-108.871,36.064],[-108.865,36.062],[-108.855,36.064],[-108.843,36.055],[-108.838,36.036],[-108.85,36.021],[-108.866,36.013],[-108.851,36.005],[-108.842,35.992],[-108.826,35.989],[-108.832,35.973],[-108.827,35.958],[-108.835,35.95],[-108.848,35.938],[-108.852,35.925],[-108.842,35.916],[-108.853,35.908],[-108.879,35.907],[-108.899,35.9],[-108.91,35.879],[-108.923,35.863],[-108.939,35.855],[-108.959,35.843],[-108.953,35.825],[-108.959,35.807],[-108.958,35.787],[-108.941,35.776],[-108.937,35.762],[-108.928,35.751],[-108.919,35.741],[-108.918,35.726],[-108.913,35.711],[-108.91,35.696],[-108.892,35.694],[-108.874,35.691],[-108.866,35.68],[-108.853,35.676],[-108.834,35.677],[-108.821,35.67],[-108.8,35.664],[-108.786,35.656],[-108.775,35.653],[-108.763,35.643],[-108.748,35.641],[-108.735,35.635],[-108.73,35.623],[-108.72,35.613],[-108.712,35.599],[-108.694,35.604],[-108.686,35.618],[-108.678,35.636],[-108.672,35.651],[-108.661,35.665],[-108.641,35.673],[-108.618,35.674],[-108.617,35.688],[-108.596,35.697],[-108.58,35.703],[-108.56,35.703],[-108.537,35.705],[-108.535,35.689],[-108.518,35.692],[-108.498,35.695],[-108.475,35.697],[-108.452,35.694],[-108.434,35.684],[-108.407,35.677],[-108.377,35.685],[-108.354,35.675],[-108.358,35.656],[-108.337,35.646],[-108.317,35.644],[-108.29,35.656],[-108.268,35.669],[-108.251,35.658],[-108.236,35.642],[-108.216,35.636],[-108.194,35.65],[-108.169,35.648],[-108.148,35.636],[-108.149,35.619],[-108.136,35.607],[-108.153,35.597],[-108.153,35.586],[-108.136,35.578],[-108.114,35.576],[-108.095,35.587],[-108.074,35.599],[-108.053,35.6],[-108.037,35.596],[-108.02,35.601],[-108.007,35.594],[-108.002,35.58],[-107.987,35.587],[-107.98,35.574],[-107.974,35.564],[-107.961,35.563],[-107.944,35.571],[-107.925,35.576],[-107.918,35.591],[-107.903,35.603],[-107.882,35.607],[-107.861,35.616],[-107.849,35.631],[-107.837,35.644],[-107.829,35.66],[-107.818,35.674],[-107.8,35.683],[-107.805,35.694],[-107.797,35.706],[-107.778,35.711],[-107.782,35.727],[-107.777,35.742],[-107.775,35.758],[-107.756,35.759],[-107.739,35.767],[-107.733,35.777],[-107.712,35.779],[-107.693,35.78],[-107.679,35.789],[-107.66,35.798],[-107.649,35.803],[-107.632,35.81],[-107.615,35.817],[-107.6,35.828],[-107.581,35.831],[-107.562,35.839],[-107.546,35.829],[-107.526,35.827],[-107.507,35.839],[-107.493,35.852],[-107.487,35.867],[-107.48,35.882],[-107.464,35.894],[-107.449,35.909],[-107.436,35.921],[-107.42,35.934],[-107.407,35.947],[-107.396,35.959],[-107.392,35.975],[-107.387,35.99],[-107.387,36.006],[-107.386,36.021],[-107.368,36.029],[-107.354,36.035],[-107.351,36.054],[-107.331,36.067],[-107.306,36.064],[-107.283,36.06],[-107.255,36.061],[-107.236,36.062],[-107.21,36.063],[-107.188,36.065],[-107.17,36.059],[-107.15,36.067],[-107.133,36.084],[-107.114,36.098],[-107.091,36.107],[-107.064,36.107],[-107.05,36.124],[-107.046,36.141],[-107.037,36.159],[-107.032,36.176],[-107.021,36.19],[-106.998,36.193],[-106.976,36.19],[-106.956,36.204],[-106.95,36.223],[-106.949,36.237],[-106.965,36.24],[-106.975,36.251],[-106.969,36.266],[-106.97,36.283],[-106.958,36.295],[-106.953,36.309],[-106.951,36.323],[-106.953,36.339],[-106.962,36.351],[-106.971,36.36],[-106.983,36.368],[-106.981,36.382],[-106.989,36.393],[-106.995,36.407],[-107.002,36.423],[-107.016,36.429],[-107.013,36.445],[-106.995,36.454],[-106.987,36.464],[-106.983,36.479],[-106.975,36.494],[-106.966,36.51],[-106.968,36.521],[-106.974,36.535],[-106.974,36.548],[-106.989,36.558],[-106.979,36.571],[-106.976,36.589],[-106.986,36.604],[-107.002,36.615],[-106.999,36.633],[-106.995,36.65],[-106.99,36.661],[-106.967,36.67],[-106.964,36.688],[-106.951,36.701],[-106.954,36.718],[-106.945,36.738],[-106.932,36.75],[-106.929,36.768],[-106.94,36.786],[-106.936,36.801],[-106.922,36.811],[-106.904,36.809],[-106.89,36.807],[-106.865,36.811],[-106.848,36.823],[-106.826,36.832],[-106.808,36.847],[-106.794,36.864],[-106.777,36.864],[-106.754,36.871],[-106.735,36.885],[-106.717,36.898],[-106.701,36.904],[-106.703,36.923],[-106.707,36.939],[-106.715,36.948],[-106.729,36.958],[-106.725,36.967],[-106.721,36.977],[-106.719,36.986],[-106.702,36.99],[-106.688,37.006],[-106.691,37.039],[-106.656,37.032],[-106.632,37.042],[-106.638,37.056],[-106.633,37.072],[-106.627,37.085],[-106.626,37.104],[-106.616,37.131],[-106.59,37.145],[-106.593,37.168],[-106.591,37.191],[-106.595,37.208],[-106.605,37.221],[-106.625,37.22],[-106.634,37.232],[-106.635,37.243],[-106.641,37.257],[-106.666,37.255],[-106.689,37.264],[-106.692,37.278],[-106.682,37.295],[-106.664,37.311],[-106.681,37.326],[-106.703,37.33],[-106.698,37.35],[-106.698,37.37],[-106.68,37.385],[-106.663,37.402],[-106.646,37.405],[-106.655,37.422],[-106.682,37.435],[-106.702,37.451],[-106.725,37.446],[-106.745,37.46],[-106.765,37.463],[-106.775,37.451],[-106.805,37.464],[-106.803,37.485],[-106.813,37.498],[-106.837,37.501],[-106.854,37.494],[-106.874,37.499],[-106.888,37.516],[-106.884,37.534],[-106.879,37.553],[-106.892,37.566],[-106.912,37.565],[-106.932,37.569],[-106.954,37.57],[-106.975,37.566],[-106.994,37.572],[-107.011,37.572],[-107.027,37.563],[-107.046,37.564],[-107.069,37.571],[-107.093,37.573],[-107.092,37.594],[-107.11,37.608],[-107.133,37.603],[-107.144,37.618],[-107.15,37.635],[-107.173,37.632],[-107.194,37.626],[-107.207,37.607],[-107.223,37.595],[-107.24,37.602],[-107.255,37.615],[-107.258,37.629],[-107.279,37.641],[-107.284,37.664],[-107.279,37.676],[-107.269,37.696],[-107.292,37.685],[-107.315,37.68],[-107.338,37.68],[-107.367,37.685],[-107.392,37.68],[-107.395,37.662],[-107.414,37.65],[-107.431,37.64],[-107.445,37.633],[-107.459,37.63],[-107.482,37.643],[-107.492,37.661],[-107.5,37.681],[-107.509,37.697],[-107.537,37.708],[-107.537,37.724],[-107.549,37.738],[-107.557,37.768],[-107.555,37.785],[-107.545,37.8],[-107.53,37.807],[-107.521,37.819],[-107.516,37.832],[-107.5,37.84],[-107.488,37.846],[-107.474,37.846],[-107.464,37.858],[-107.452,37.848],[-107.444,37.844],[-107.432,37.852],[-107.417,37.858],[-107.394,37.856],[-107.378,37.858],[-107.356,37.858],[-107.342,37.868],[-107.328,37.879],[-107.312,37.892],[-107.298,37.906],[-107.279,37.928],[-107.254,37.93],[-107.201,37.93],[-107.177,37.937],[-107.133,37.937],[-107.104,37.953],[-107.08,37.954],[-107.059,37.956],[-107.031,37.952],[-107.01,37.947],[-106.998,37.958],[-106.987,37.967],[-106.969,37.973],[-106.957,37.967],[-106.946,37.953],[-106.934,37.961],[-106.919,37.967],[-106.903,37.965],[-106.888,37.961],[-106.878,37.949],[-106.86,37.949],[-106.843,37.956],[-106.81,37.968],[-106.796,37.989],[-106.801,38.011],[-106.783,38.056],[-106.749,38.088],[-106.723,38.091],[-106.704,38.08],[-106.676,38.086],[-106.665,38.096],[-106.647,38.112],[-106.635,38.124],[-106.621,38.132],[-106.599,38.154],[-106.598,38.181],[-106.592,38.19],[-106.577,38.207],[-106.558,38.227],[-106.551,38.253],[-106.524,38.281],[-106.508,38.311],[-106.474,38.318],[-106.451,38.295],[-106.409,38.286],[-106.363,38.291],[-106.329,38.311],[-106.318,38.336],[-106.293,38.345],[-106.261,38.35],[-106.242,38.36],[-106.241,38.385],[-106.253,38.401],[-106.248,38.425],[-106.26,38.442],[-106.272,38.448],[-106.282,38.456],[-106.29,38.466],[-106.299,38.476],[-106.309,38.488],[-106.327,38.497],[-106.339,38.499],[-106.343,38.522],[-106.355,38.542],[-106.347,38.565],[-106.355,38.587],[-106.364,38.607],[-106.379,38.62],[-106.383,38.639],[-106.405,38.647],[-106.425,38.65],[-106.436,38.673],[-106.447,38.692],[-106.443,38.709],[-106.423,38.721],[-106.418,38.743],[-106.417,38.765],[-106.416,38.785],[-106.422,38.806],[-106.41,38.827],[-106.386,38.824],[-106.37,38.839],[-106.362,38.853],[-106.348,38.866],[-106.334,38.88],[-106.324,38.891],[-106.324,38.905],[-106.337,38.91],[-106.358,38.913],[-106.376,38.909],[-106.385,38.923],[-106.4,38.912],[-106.416,38.92],[-106.429,38.925],[-106.44,38.915],[-106.457,38.911],[-106.475,38.916],[-106.491,38.93],[-106.506,38.94],[-106.524,38.954],[-106.526,38.975],[-106.547,38.991],[-106.565,38.995],[-106.582,38.992],[-106.598,38.995],[-106.595,39.022],[-106.596,39.045],[-106.577,39.066],[-106.585,39.086],[-106.586,39.096],[-106.564,39.106],[-106.558,39.121],[-106.565,39.133],[-106.56,39.145],[-106.56,39.156],[-106.539,39.158],[-106.525,39.159],[-106.515,39.162],[-106.509,39.17],[-106.507,39.178],[-106.499,39.188],[-106.494,39.205],[-106.491,39.223],[-106.498,39.234],[-106.488,39.249],[-106.482,39.262],[-106.485,39.273],[-106.499,39.279],[-106.503,39.291],[-106.493,39.304],[-106.476,39.314],[-106.467,39.31],[-106.439,39.317],[-106.429,39.334],[-106.434,39.35],[-106.424,39.363],[-106.407,39.376],[-106.393,39.379],[-106.381,39.376],[-106.371,39.361],[-106.328,39.359],[-106.311,39.362],[-106.296,39.357],[-106.279,39.353],[-106.266,39.359],[-106.253,39.359],[-106.237,39.37],[-106.211,39.383],[-106.183,39.366],[-106.162,39.362],[-106.149,39.368],[-106.136,39.38],[-106.116,39.377],[-106.102,39.378],[-106.074,39.369],[-106.035,39.358],[-106.017,39.366],[-106.014,39.387],[-105.995,39.396],[-105.977,39.409],[-105.952,39.415],[-105.965,39.434],[-105.945,39.441],[-105.94,39.457],[-105.913,39.458],[-105.898,39.474],[-105.879,39.484],[-105.867,39.495],[-105.863,39.514],[-105.862,39.529],[-105.842,39.527],[-105.824,39.531],[-105.819,39.545],[-105.829,39.562],[-105.833,39.577],[-105.813,39.583],[-105.788,39.599],[-105.777,39.612],[-105.783,39.63],[-105.803,39.635],[-105.819,39.638],[-105.834,39.642],[-105.853,39.648],[-105.861,39.661],[-105.871,39.666],[-105.893,39.659],[-105.917,39.667],[-105.92,39.686],[-105.924,39.702],[-105.912,39.715],[-105.905,39.729],[-105.883,39.738],[-105.885,39.753],[-105.886,39.766],[-105.891,39.779],[-105.886,39.797],[-105.865,39.797],[-105.851,39.788],[-105.83,39.788],[-105.814,39.79],[-105.794,39.802],[-105.769,39.796],[-105.751,39.801],[-105.735,39.81],[-105.723,39.825],[-105.713,39.838],[-105.695,39.842],[-105.693,39.856],[-105.697,39.872],[-105.699,39.887],[-105.691,39.898],[-105.688,39.911],[-105.682,39.922],[-105.683,39.935],[-105.692,39.947],[-105.685,39.959],[-105.69,39.972],[-105.688,39.986],[-105.691,39.996],[-105.69,40.011],[-105.679,40.014],[-105.655,40.02],[-105.644,40.033],[-105.638,40.046],[-105.649,40.054],[-105.643,40.067],[-105.637,40.075],[-105.635,40.087],[-105.633,40.098],[-105.636,40.109],[-105.628,40.122],[-105.63,40.137],[-105.645,40.148],[-105.667,40.157],[-105.667,40.17],[-105.672,40.181],[-105.678,40.194],[-105.672,40.207],[-105.67,40.22],[-105.667,40.231],[-105.66,40.247],[-105.651,40.255],[-105.66,40.264],[-105.676,40.267],[-105.681,40.276],[-105.686,40.289],[-105.686,40.302],[-105.693,40.309],[-105.701,40.316],[-105.709,40.324],[-105.727,40.334],[-105.736,40.343],[-105.751,40.349],[-105.762,40.357],[-105.774,40.366],[-105.782,40.374],[-105.789,40.385],[-105.791,40.399],[-105.804,40.412],[-105.818,40.426],[-105.814,40.439],[-105.806,40.457],[-105.819,40.476],[-105.853,40.486],[-105.878,40.477],[-105.894,40.47],[-105.898,40.457],[-105.897,40.449],[-105.902,40.437],[-105.9,40.428],[-105.899,40.415],[-105.904,40.4],[-105.921,40.401],[-105.935,40.388],[-105.947,40.378],[-105.939,40.367],[-105.955,40.357],[-105.967,40.35],[-105.989,40.364],[-106.004,40.362],[-106.023,40.372],[-106.045,40.362],[-106.07,40.353],[-106.098,40.353],[-106.122,40.342],[-106.136,40.332],[-106.159,40.34],[-106.18,40.337],[-106.199,40.327],[-106.228,40.324],[-106.247,40.338],[-106.257,40.352],[-106.272,40.357],[-106.291,40.358],[-106.298,40.34],[-106.315,40.333],[-106.338,40.342],[-106.364,40.357],[-106.396,40.347],[-106.42,40.351],[-106.444,40.347],[-106.457,40.365],[-106.464,40.375],[-106.48,40.395],[-106.496,40.404],[-106.51,40.389],[-106.526,40.383],[-106.535,40.366],[-106.556,40.375],[-106.58,40.379],[-106.595,40.382],[-106.606,40.379],[-106.617,40.394],[-106.624,40.413],[-106.624,40.429],[-106.639,40.433],[-106.652,40.445],[-106.659,40.46],[-106.667,40.472],[-106.657,40.491],[-106.656,40.506],[-106.667,40.52],[-106.686,40.55],[-106.7,40.576],[-106.695,40.598],[-106.706,40.614],[-106.702,40.627],[-106.689,40.637],[-106.686,40.65],[-106.686,40.664],[-106.679,40.686],[-106.669,40.699],[-106.674,40.724],[-106.67,40.739],[-106.664,40.752],[-106.669,40.763],[-106.65,40.776],[-106.637,40.791],[-106.637,40.81],[-106.642,40.82],[-106.659,40.826],[-106.663,40.838],[-106.657,40.853],[-106.668,40.862],[-106.703,40.88],[-106.743,40.892],[-106.78,40.907],[-106.809,40.9],[-106.825,40.931],[-106.856,40.937],[-106.853,40.989],[-106.898,41.017],[-106.923,41.045],[-106.892,41.08],[-106.917,41.09],[-106.96,41.101],[-106.972,41.112],[-107.009,41.116],[-106.998,41.128],[-106.978,41.148],[-107.0,41.176],[-107.056,41.196],[-107.109,41.222],[-107.117,41.253],[-107.152,41.291],[-107.135,41.322],[-107.166,41.342],[-107.201,41.373],[-107.219,41.403],[-107.265,41.39],[-107.304,41.385],[-107.338,41.405],[-107.348,41.436],[-107.322,41.452],[-107.314,41.474],[-107.322,41.496],[-107.311,41.516],[-107.333,41.535],[-107.386,41.538],[-107.419,41.548],[-107.453,41.547],[-107.423,41.573],[-107.394,41.603],[-107.414,41.626],[-107.454,41.659],[-107.391,41.703],[-107.354,41.755],[-107.369,41.8],[-107.358,41.828],[-107.327,41.86],[-107.333,41.898],[-107.298,41.946],[-107.232,41.875],[-107.164,41.854],[-107.127,41.876],[-107.112,41.897],[-107.129,41.928],[-107.133,41.954],[-107.13,41.98],[-107.142,42.006],[-107.129,42.046],[-107.092,42.081],[-107.081,42.104],[-107.107,42.124],[-107.088,42.151],[-107.112,42.167],[-107.147,42.174],[-107.186,42.166],[-107.205,42.179],[-107.203,42.202],[-107.212,42.24],[-107.242,42.257],[-107.27,42.248],[-107.306,42.22],[-107.341,42.22],[-107.368,42.227],[-107.403,42.233],[-107.454,42.237],[-107.492,42.251],[-107.549,42.256],[-107.589,42.286],[-107.601,42.313],[-107.627,42.307],[-107.656,42.289],[-107.693,42.257],[-107.762,42.258],[-107.83,42.251],[-107.849,42.266],[-107.873,42.281],[-107.909,42.309],[-107.938,42.337],[-107.921,42.378],[-107.973,42.387],[-107.978,42.354],[-108.011,42.322],[-108.062,42.329],[-108.099,42.313],[-108.138,42.278],[-108.185,42.283],[-108.234,42.245],[-108.283,42.22],[-108.349,42.224],[-108.411,42.222],[-108.472,42.253],[-108.533,42.265],[-108.585,42.306],[-108.659,42.307],[-108.71,42.296],[-108.749,42.279],[-108.8,42.265],[-108.849,42.262],[-108.859,42.272],[-108.868,42.285],[-108.872,42.3],[-108.871,42.316],[-108.886,42.338],[-108.903,42.354],[-108.896,42.365],[-108.915,42.383],[-108.951,42.397],[-108.969,42.414],[-108.988,42.417],[-108.998,42.429],[-109.01,42.425],[-109.023,42.429],[-109.031,42.433],[-109.055,42.434],[-109.061,42.445],[-109.086,42.452],[-109.106,42.455],[-109.124,42.46],[-109.126,42.469],[-109.128,42.476],[-109.142,42.478],[-109.159,42.485],[-109.168,42.492],[-109.186,42.491],[-109.184,42.503],[-109.203,42.509],[-109.198,42.523],[-109.199,42.537],[-109.186,42.55],[-109.174,42.559],[-109.166,42.57],[-109.148,42.573],[-109.137,42.584],[-109.135,42.596],[-109.129,42.61],[-109.119,42.62],[-109.103,42.622],[-109.094,42.633],[-109.101,42.646],[-109.116,42.657],[-109.121,42.666],[-109.126,42.673],[-109.129,42.687],[-109.134,42.696],[-109.132,42.707],[-109.134,42.718],[-109.146,42.726],[-109.143,42.733],[-109.132,42.734],[-109.134,42.738],[-109.146,42.743],[-109.159,42.743],[-109.169,42.749],[-109.185,42.76],[-109.205,42.77],[-109.219,42.761],[-109.236,42.77],[-109.23,42.785],[-109.21,42.793],[-109.235,42.806],[-109.26,42.815],[-109.272,42.83],[-109.279,42.845],[-109.296,42.848],[-109.318,42.858],[-109.329,42.874],[-109.331,42.889],[-109.34,42.902],[-109.346,42.917],[-109.358,42.93],[-109.367,42.942],[-109.375,42.943],[-109.385,42.939],[-109.401,42.944],[-109.423,42.959],[-109.441,42.968],[-109.461,42.982],[-109.465,42.99],[-109.474,42.993],[-109.485,42.994],[-109.494,42.998],[-109.498,43.006],[-109.506,43.01],[-109.515,43.007],[-109.522,43.01],[-109.534,43.014],[-109.553,43.013],[-109.556,43.027],[-109.558,43.04],[-109.567,43.048],[-109.553,43.059],[-109.553,43.072],[-109.563,43.084],[-109.57,43.097],[-109.585,43.108],[-109.598,43.119],[-109.607,43.122],[-109.617,43.125],[-109.624,43.132],[-109.627,43.14],[-109.63,43.147],[-109.63,43.16],[-109.635,43.166],[-109.645,43.163],[-109.652,43.169],[-109.655,43.177],[-109.654,43.185],[-109.658,43.193],[-109.66,43.2],[-109.665,43.205],[-109.671,43.211],[-109.676,43.222],[-109.678,43.237],[-109.682,43.258],[-109.681,43.271],[-109.681,43.29],[-109.676,43.312],[-109.699,43.331],[-109.695,43.356],[-109.705,43.369],[-109.742,43.365],[-109.778,43.381],[-109.817,43.386],[-109.857,43.385],[-109.903,43.387],[-109.954,43.42],[-110.005,43.447],[-110.038,43.451]]]}},{"type":"Feature","properties":{"huc2":"15","name":"Lower Colorado Region"},"geometry":{"type":"Polygon","coordinates":[[[-115.079,39.301],[-115.093,39.284],[-115.103,39.264],[-115.119,39.246],[-115.109,39.225],[-115.117,39.209],[-115.143,39.197],[-115.188,39.166],[-115.249,39.098],[-115.29,39.079],[-115.32,39.08],[-115.346,39.09],[-115.366,39.108],[-115.401,39.093],[-115.418,39.077],[-115.407,39.048],[-115.411,39.027],[-115.417,39.008],[-115.422,38.977],[-115.434,38.953],[-115.427,38.933],[-115.424,38.909],[-115.408,38.903],[-115.385,38.909],[-115.369,38.905],[-115.343,38.887],[-115.317,38.868],[-115.314,38.848],[-115.296,38.833],[-115.287,38.811],[-115.309,38.795],[-115.297,38.777],[-115.302,38.754],[-115.307,38.736],[-115.303,38.722],[-115.311,38.706],[-115.313,38.687],[-115.3,38.676],[-115.299,38.66],[-115.3,38.644],[-115.304,38.631],[-115.307,38.611],[-115.321,38.599],[-115.335,38.578],[-115.354,38.565],[-115.37,38.548],[-115.376,38.525],[-115.392,38.507],[-115.387,38.492],[-115.375,38.48],[-115.363,38.475],[-115.36,38.46],[-115.36,38.445],[-115.377,38.433],[-115.403,38.422],[-115.427,38.416],[-115.448,38.404],[-115.464,38.389],[-115.483,38.375],[-115.501,38.358],[-115.49,38.335],[-115.459,38.324],[-115.42,38.314],[-115.384,38.287],[-115.341,38.261],[-115.322,38.262],[-115.306,38.253],[-115.299,38.241],[-115.305,38.221],[-115.283,38.213],[-115.275,38.202],[-115.254,38.186],[-115.235,38.161],[-115.222,38.154],[-115.216,38.147],[-115.195,38.137],[-115.184,38.122],[-115.165,38.117],[-115.142,38.109],[-115.131,38.092],[-115.129,38.074],[-115.11,38.064],[-115.103,38.046],[-115.096,38.029],[-115.084,38.009],[-115.097,37.989],[-115.118,37.98],[-115.133,37.964],[-115.147,37.943],[-115.138,37.93],[-115.142,37.908],[-115.164,37.892],[-115.181,37.89],[-115.19,37.877],[-115.194,37.861],[-115.185,37.849],[-115.194,37.837],[-115.23,37.83],[-115.253,37.813],[-115.261,37.8],[-115.269,37.787],[-115.275,37.769],[-115.281,37.752],[-115.285,37.731],[-115.272,37.713],[-115.29,37.701],[-115.316,37.696],[-115.342,37.697],[-115.356,37.684],[-115.38,37.676],[-115.391,37.659],[-115.4,37.642],[-115.412,37.621],[-115.413,37.599],[-115.415,37.577],[-115.428,37.56],[-115.419,37.549],[-115.424,37.527],[-115.431,37.509],[-115.422,37.49],[-115.422,37.47],[-115.422,37.458],[-115.41,37.448],[-115.396,37.441],[-115.384,37.435],[-115.367,37.428],[-115.351,37.415],[-115.345,37.398],[-115.34,37.385],[-115.339,37.366],[-115.341,37.354],[-115.348,37.336],[-115.342,37.32],[-115.329,37.31],[-115.324,37.295],[-115.314,37.285],[-115.301,37.268],[-115.294,37.251],[-115.28,37.222],[-115.267,37.193],[-115.256,37.163],[-115.247,37.155],[-115.232,37.17],[-115.212,37.167],[-115.189,37.152],[-115.175,37.135],[-115.153,37.134],[-115.136,37.119],[-115.137,37.101],[-115.135,37.086],[-115.138,37.068],[-115.138,37.048],[-115.132,37.03],[-115.124,37.015],[-115.128,36.995],[-115.124,36.979],[-115.123,36.962],[-115.115,36.945],[-115.114,36.928],[-115.111,36.912],[-115.109,36.901],[-115.104,36.889],[-115.105,36.872],[-115.11,36.857],[-115.103,36.845],[-115.11,36.829],[-115.105,36.817],[-115.112,36.802],[-115.111,36.79],[-115.12,36.781],[-115.125,36.766],[-115.126,36.754],[-115.134,36.742],[-115.147,36.726],[-115.157,36.714],[-115.167,36.701],[-115.183,36.696],[-115.201,36.698],[-115.219,36.71],[-115.242,36.719],[-115.276,36.719],[-115.313,36.738],[-115.331,36.738],[-115.344,36.741],[-115.365,36.745],[-115.384,36.74],[-115.427,36.731],[-115.467,36.752],[-115.485,36.759],[-115.499,36.76],[-115.518,36.751],[-115.538,36.743],[-115.537,36.728],[-115.545,36.714],[-115.542,36.694],[-115.553,36.679],[-115.566,36.66],[-115.562,36.646],[-115.573,36.629],[-115.593,36.607],[-115.608,36.601],[-115.618,36.593],[-115.614,36.578],[-115.636,36.539],[-115.659,36.501],[-115.661,36.483],[-115.672,36.462],[-115.687,36.41],[-115.693,36.37],[-115.696,36.347],[-115.702,36.325],[-115.704,36.317],[-115.701,36.307],[-115.696,36.297],[-115.69,36.288],[-115.694,36.282],[-115.695,36.273],[-115.69,36.264],[-115.68,36.258],[-115.67,36.248],[-115.658,36.238],[-115.644,36.233],[-115.63,36.239],[-115.616,36.241],[-115.608,36.233],[-115.601,36.223],[-115.59,36.213],[-115.58,36.204],[-115.566,36.2],[-115.551,36.194],[-115.538,36.189],[-115.535,36.179],[-115.532,36.17],[-115.54,36.161],[-115.537,36.154],[-115.541,36.147],[-115.543,36.14],[-115.538,36.134],[-115.527,36.131],[-115.521,36.132],[-115.523,36.123],[-115.523,36.112],[-115.514,36.103],[-115.508,36.093],[-115.501,36.084],[-115.494,36.076],[-115.496,36.066],[-115.494,36.058],[-115.488,36.051],[-115.484,36.043],[-115.483,36.036],[-115.484,36.025],[-115.5,36.019],[-115.513,36.011],[-115.508,36.002],[-115.519,35.997],[-115.526,35.992],[-115.524,35.985],[-115.521,35.979],[-115.518,35.973],[-115.513,35.969],[-115.502,35.967],[-115.493,35.963],[-115.479,35.963],[-115.467,35.955],[-115.451,35.953],[-115.44,35.957],[-115.43,35.955],[-115.432,35.945],[-115.428,35.932],[-115.419,35.926],[-115.407,35.927],[-115.402,35.917],[-115.397,35.903],[-115.39,35.892],[-115.383,35.883],[-115.371,35.878],[-115.365,35.868],[-115.359,35.874],[-115.347,35.885],[-115.343,35.894],[-115.332,35.897],[-115.317,35.9],[-115.303,35.892],[-115.292,35.888],[-115.275,35.887],[-115.265,35.882],[-115.254,35.876],[-115.234,35.866],[-115.212,35.859],[-115.199,35.864],[-115.185,35.869],[-115.174,35.879],[-115.154,35.881],[-115.143,35.884],[-115.132,35.882],[-115.127,35.879],[-115.126,35.864],[-115.117,35.85],[-115.103,35.834],[-115.086,35.829],[-115.075,35.84],[-115.072,35.851],[-115.064,35.86],[-115.051,35.865],[-115.044,35.876],[-115.044,35.889],[-115.046,35.903],[-115.044,35.916],[-115.042,35.926],[-115.042,35.936],[-115.042,35.947],[-115.036,35.955],[-115.031,35.962],[-115.011,35.965],[-114.997,35.961],[-114.991,35.967],[-114.982,35.965],[-114.964,35.963],[-114.953,35.958],[-114.943,35.959],[-114.936,35.965],[-114.929,35.971],[-114.923,35.977],[-114.907,35.984],[-114.898,35.984],[-114.886,35.988],[-114.878,35.993],[-114.874,35.998],[-114.863,35.998],[-114.862,35.993],[-114.861,35.987],[-114.844,35.978],[-114.834,35.981],[-114.821,35.983],[-114.813,35.978],[-114.809,35.956],[-114.79,35.944],[-114.767,35.95],[-114.763,35.96],[-114.757,35.961],[-114.757,35.948],[-114.763,35.939],[-114.755,35.93],[-114.752,35.915],[-114.747,35.908],[-114.751,35.896],[-114.755,35.884],[-114.755,35.87],[-114.761,35.861],[-114.762,35.851],[-114.759,35.837],[-114.762,35.826],[-114.773,35.814],[-114.777,35.8],[-114.786,35.797],[-114.786,35.791],[-114.792,35.785],[-114.799,35.785],[-114.808,35.777],[-114.815,35.77],[-114.817,35.763],[-114.822,35.756],[-114.826,35.75],[-114.825,35.744],[-114.822,35.737],[-114.827,35.729],[-114.833,35.729],[-114.841,35.73],[-114.852,35.728],[-114.864,35.726],[-114.865,35.72],[-114.868,35.712],[-114.874,35.705],[-114.882,35.704],[-114.881,35.696],[-114.868,35.692],[-114.858,35.688],[-114.849,35.686],[-114.849,35.678],[-114.846,35.671],[-114.842,35.666],[-114.838,35.659],[-114.834,35.653],[-114.841,35.648],[-114.839,35.642],[-114.837,35.636],[-114.835,35.629],[-114.834,35.622],[-114.832,35.613],[-114.831,35.603],[-114.829,35.594],[-114.829,35.587],[-114.838,35.579],[-114.843,35.572],[-114.844,35.562],[-114.844,35.554],[-114.848,35.546],[-114.855,35.541],[-114.863,35.532],[-114.859,35.522],[-114.856,35.515],[-114.863,35.507],[-114.875,35.506],[-114.893,35.5],[-114.901,35.495],[-114.911,35.49],[-114.931,35.499],[-114.949,35.501],[-114.959,35.51],[-114.962,35.519],[-114.967,35.524],[-114.97,35.536],[-114.98,35.544],[-114.996,35.555],[-115.012,35.554],[-115.026,35.562],[-115.036,35.569],[-115.047,35.568],[-115.054,35.581],[-115.067,35.568],[-115.101,35.557],[-115.136,35.558],[-115.156,35.558],[-115.168,35.56],[-115.174,35.562],[-115.173,35.551],[-115.172,35.537],[-115.16,35.531],[-115.147,35.526],[-115.141,35.517],[-115.131,35.508],[-115.127,35.496],[-115.126,35.486],[-115.125,35.477],[-115.118,35.466],[-115.125,35.452],[-115.126,35.444],[-115.127,35.432],[-115.136,35.424],[-115.13,35.411],[-115.137,35.402],[-115.144,35.395],[-115.154,35.385],[-115.157,35.377],[-115.162,35.369],[-115.171,35.361],[-115.183,35.357],[-115.19,35.35],[-115.21,35.34],[-115.218,35.329],[-115.227,35.318],[-115.22,35.303],[-115.241,35.301],[-115.254,35.299],[-115.262,35.292],[-115.27,35.28],[-115.288,35.279],[-115.298,35.276],[-115.307,35.273],[-115.307,35.267],[-115.312,35.261],[-115.311,35.255],[-115.314,35.25],[-115.319,35.239],[-115.32,35.231],[-115.323,35.224],[-115.32,35.199],[-115.297,35.172],[-115.243,35.148],[-115.166,35.097],[-115.124,35.087],[-115.105,35.077],[-115.148,35.069],[-115.161,35.055],[-115.13,35.028],[-115.094,35.0],[-115.074,34.957],[-115.051,34.908],[-115.04,34.903],[-115.03,34.901],[-115.019,34.91],[-114.972,34.901],[-114.916,34.865],[-114.901,34.865],[-114.884,34.864],[-114.878,34.851],[-114.876,34.839],[-114.858,34.834],[-114.849,34.813],[-114.827,34.81],[-114.82,34.794],[-114.813,34.782],[-114.807,34.76],[-114.803,34.743],[-114.8,34.73],[-114.814,34.71],[-114.826,34.7],[-114.832,34.691],[-114.841,34.675],[-114.847,34.664],[-114.852,34.654],[-114.863,34.637],[-114.875,34.624],[-114.87,34.613],[-114.866,34.606],[-114.869,34.596],[-114.873,34.587],[-114.872,34.58],[-114.868,34.573],[-114.865,34.565],[-114.863,34.557],[-114.875,34.556],[-114.88,34.52],[-114.874,34.495],[-114.87,34.479],[-114.867,34.463],[-114.867,34.439],[-114.844,34.43],[-114.836,34.425],[-114.833,34.417],[-114.834,34.41],[-114.829,34.405],[-114.825,34.4],[-114.824,34.392],[-114.834,34.382],[-114.845,34.37],[-114.848,34.359],[-114.856,34.348],[-114.867,34.34],[-114.859,34.332],[-114.855,34.321],[-114.865,34.316],[-114.867,34.308],[-114.858,34.301],[-114.849,34.292],[-114.839,34.284],[-114.833,34.273],[-114.828,34.264],[-114.824,34.256],[-114.814,34.25],[-114.813,34.24],[-114.809,34.233],[-114.805,34.22],[-114.809,34.205],[-114.794,34.198],[-114.781,34.188],[-114.772,34.162],[-114.703,34.115],[-114.659,34.079],[-114.651,34.064],[-114.645,34.05],[-114.645,34.035],[-114.638,34.024],[-114.652,33.959],[-114.624,33.928],[-114.63,33.918],[-114.632,33.9],[-114.641,33.887],[-114.649,33.882],[-114.661,33.881],[-114.667,33.877],[-114.67,33.87],[-114.68,33.867],[-114.689,33.872],[-114.703,33.871],[-114.715,33.871],[-114.726,33.877],[-114.735,33.881],[-114.744,33.879],[-114.754,33.886],[-114.765,33.886],[-114.777,33.879],[-114.787,33.88],[-114.799,33.881],[-114.809,33.88],[-114.823,33.875],[-114.836,33.871],[-114.845,33.862],[-114.853,33.861],[-114.864,33.858],[-114.859,33.852],[-114.866,33.832],[-114.889,33.797],[-114.906,33.793],[-114.915,33.8],[-114.92,33.792],[-114.919,33.781],[-114.912,33.772],[-114.917,33.763],[-114.91,33.751],[-114.903,33.74],[-114.89,33.737],[-114.875,33.731],[-114.864,33.724],[-114.859,33.713],[-114.855,33.702],[-114.845,33.69],[-114.843,33.68],[-114.838,33.673],[-114.83,33.664],[-114.828,33.652],[-114.816,33.622],[-114.816,33.573],[-114.82,33.546],[-114.811,33.536],[-114.82,33.529],[-114.83,33.525],[-114.836,33.513],[-114.838,33.505],[-114.847,33.498],[-114.843,33.491],[-114.846,33.487],[-114.848,33.48],[-114.863,33.485],[-114.87,33.476],[-114.876,33.468],[-114.872,33.461],[-114.878,33.455],[-114.892,33.443],[-114.904,33.427],[-114.916,33.417],[-114.921,33.407],[-114.924,33.397],[-114.932,33.39],[-114.947,33.388],[-114.963,33.389],[-114.972,33.397],[-114.983,33.392],[-115.001,33.389],[-115.018,33.389],[-115.032,33.384],[-115.046,33.382],[-115.058,33.387],[-115.069,33.389],[-115.191,33.418],[-115.262,33.456],[-115.254,33.471],[-115.262,33.479],[-115.264,33.492],[-115.28,33.499],[-115.287,33.511],[-115.304,33.514],[-115.324,33.52],[-115.328,33.509],[-115.335,33.482],[-115.333,33.464],[-115.323,33.442],[-115.305,33.421],[-115.292,33.407],[-115.282,33.389],[-115.275,33.378],[-115.243,33.346],[-115.222,33.319],[-115.212,33.294],[-115.211,33.264],[-115.214,33.23],[-115.224,33.223],[-115.206,33.219],[-115.188,33.218],[-115.175,33.204],[-115.168,33.192],[-115.152,33.193],[-115.136,33.189],[-115.122,33.184],[-115.108,33.184],[-115.1,33.18],[-115.084,33.178],[-115.083,33.163],[-115.068,33.161],[-115.058,33.156],[-115.047,33.151],[-115.036,33.144],[-115.023,33.144],[-115.016,33.134],[-115.003,33.133],[-114.99,33.134],[-114.977,33.138],[-114.966,33.146],[-114.951,33.144],[-114.954,33.134],[-114.931,33.126],[-114.886,33.121],[-114.855,33.107],[-114.837,33.091],[-114.825,33.089],[-114.823,33.082],[-114.822,33.072],[-114.83,33.072],[-114.834,33.062],[-114.823,33.055],[-114.816,33.047],[-114.81,33.045],[-114.795,33.037],[-114.775,33.02],[-114.763,33.021],[-114.753,33.018],[-114.751,33.008],[-114.752,32.998],[-114.747,32.986],[-114.742,32.975],[-114.732,32.969],[-114.722,32.97],[-114.716,32.972],[-114.726,32.961],[-114.742,32.946],[-114.758,32.922],[-114.76,32.91],[-114.775,32.905],[-114.789,32.897],[-114.8,32.893],[-114.799,32.88],[-114.785,32.875],[-114.771,32.875],[-114.756,32.869],[-114.753,32.856],[-114.76,32.851],[-114.757,32.84],[-114.753,32.828],[-114.76,32.818],[-114.748,32.816],[-114.74,32.817],[-114.732,32.814],[-114.751,32.789],[-114.753,32.759],[-114.75,32.734],[-114.745,32.73],[-114.74,32.725],[-114.741,32.717],[-114.839,32.622],[-115.012,32.498],[-115.299,32.425],[-115.361,32.37],[-115.403,32.362],[-115.416,32.351],[-115.413,32.342],[-115.394,32.339],[-115.381,32.327],[-115.383,32.317],[-115.388,32.302],[-115.391,32.292],[-115.373,32.283],[-115.378,32.269],[-115.38,32.256],[-115.396,32.252],[-115.412,32.241],[-115.421,32.229],[-115.424,32.218],[-115.418,32.205],[-115.405,32.201],[-115.391,32.196],[-115.382,32.184],[-115.371,32.181],[-115.357,32.174],[-115.346,32.164],[-115.331,32.156],[-115.313,32.15],[-115.316,32.136],[-115.302,32.125],[-115.293,32.107],[-115.305,32.094],[-115.302,32.078],[-115.29,32.058],[-115.289,32.042],[-115.293,32.024],[-115.281,32.012],[-115.266,31.973],[-115.168,31.864],[-115.14,31.855],[-115.152,31.845],[-115.171,31.817],[-115.172,31.805],[-115.165,31.792],[-115.163,31.774],[-115.15,31.772],[-115.129,31.765],[-115.129,31.748],[-115.15,31.737],[-115.142,31.718],[-115.155,31.712],[-115.165,31.701],[-115.168,31.688],[-115.166,31.674],[-115.161,31.661],[-115.146,31.654],[-115.135,31.649],[-115.125,31.651],[-115.115,31.662],[-115.11,31.674],[-115.104,31.687],[-115.093,31.697],[-115.083,31.708],[-115.062,31.706],[-115.054,31.715],[-115.039,31.717],[-114.8,31.701],[-114.776,31.821],[-114.575,31.746],[-114.456,31.662],[-114.426,31.642],[-114.387,31.623],[-114.347,31.603],[-114.31,31.571],[-114.283,31.55],[-114.224,31.525],[-114.15,31.493],[-114.033,31.491],[-114.016,31.525],[-114.016,31.531],[-114.002,31.524],[-113.786,31.565],[-113.627,31.414],[-113.607,31.326],[-113.25,31.24],[-113.11,31.195],[-113.071,31.101],[-113.133,30.814],[-112.978,30.534],[-112.938,30.518],[-112.869,30.532],[-112.863,30.535],[-112.816,30.6],[-112.775,30.586],[-112.75,30.596],[-112.731,30.608],[-112.714,30.605],[-112.681,30.616],[-112.663,30.622],[-112.648,30.615],[-112.64,30.625],[-112.639,30.64],[-112.626,30.643],[-112.609,30.643],[-112.587,30.636],[-112.572,30.636],[-112.576,30.622],[-112.566,30.612],[-112.552,30.604],[-112.544,30.589],[-112.505,30.575],[-112.476,30.555],[-112.468,30.542],[-112.459,30.53],[-112.451,30.522],[-112.434,30.521],[-112.418,30.517],[-112.412,30.508],[-112.404,30.5],[-112.402,30.489],[-112.402,30.477],[-112.409,30.47],[-112.399,30.455],[-112.399,30.442],[-112.383,30.427],[-112.377,30.41],[-112.369,30.396],[-112.36,30.386],[-112.356,30.375],[-112.346,30.363],[-112.341,30.352],[-112.328,30.34],[-112.323,30.326],[-112.318,30.313],[-112.31,30.299],[-112.31,30.289],[-112.308,30.276],[-112.307,30.263],[-112.304,30.249],[-112.306,30.235],[-112.314,30.223],[-112.365,30.187],[-112.395,30.201],[-112.417,30.218],[-112.426,30.193],[-112.421,30.164],[-112.405,30.129],[-112.383,30.106],[-112.371,30.091],[-112.391,30.078],[-112.397,30.058],[-112.387,30.052],[-112.372,30.072],[-112.348,30.075],[-112.307,30.081],[-112.226,30.055],[-112.198,30.063],[-112.172,30.064],[-112.165,30.05],[-112.086,30.016],[-112.028,30.043],[-112.019,30.056],[-112.012,30.074],[-112.003,30.071],[-111.989,30.064],[-111.946,30.043],[-111.747,30.017],[-111.679,30.012],[-111.657,30.009],[-111.641,30.021],[-111.626,30.028],[-111.625,30.038],[-111.63,30.049],[-111.617,30.056],[-111.602,30.062],[-111.561,30.056],[-111.525,30.084],[-111.495,30.099],[-111.477,30.105],[-111.467,30.112],[-111.455,30.106],[-111.441,30.1],[-111.43,30.097],[-111.417,30.098],[-111.404,30.102],[-111.392,30.103],[-111.381,30.107],[-111.375,30.1],[-111.386,30.096],[-111.397,30.089],[-111.393,30.065],[-111.384,30.032],[-111.366,29.978],[-111.364,29.89],[-111.374,29.856],[-111.365,29.841],[-111.337,29.877],[-111.232,29.914],[-111.183,29.904],[-111.175,29.924],[-111.154,29.955],[-111.17,29.98],[-111.179,29.997],[-111.18,30.009],[-111.187,30.02],[-111.171,30.026],[-111.165,30.038],[-111.145,30.056],[-111.123,30.073],[-111.125,30.097],[-111.106,30.124],[-111.07,30.161],[-111.058,30.18],[-111.061,30.19],[-111.054,30.202],[-111.048,30.213],[-111.039,30.223],[-111.035,30.234],[-111.025,30.237],[-111.014,30.25],[-111.004,30.254],[-110.988,30.259],[-110.961,30.267],[-110.933,30.285],[-110.903,30.286],[-110.881,30.301],[-110.871,30.321],[-110.861,30.324],[-110.851,30.334],[-110.833,30.336],[-110.814,30.338],[-110.82,30.347],[-110.823,30.366],[-110.824,30.38],[-110.829,30.393],[-110.828,30.405],[-110.822,30.418],[-110.821,30.428],[-110.808,30.438],[-110.797,30.446],[-110.787,30.454],[-110.788,30.469],[-110.775,30.486],[-110.778,30.504],[-110.761,30.519],[-110.761,30.537],[-110.748,30.553],[-110.741,30.569],[-110.748,30.581],[-110.758,30.592],[-110.754,30.605],[-110.755,30.621],[-110.754,30.639],[-110.748,30.648],[-110.729,30.654],[-110.71,30.656],[-110.673,30.642],[-110.658,30.631],[-110.647,30.641],[-110.628,30.644],[-110.618,30.655],[-110.609,30.668],[-110.602,30.683],[-110.594,30.698],[-110.593,30.71],[-110.587,30.721],[-110.576,30.736],[-110.559,30.747],[-110.545,30.761],[-110.537,30.778],[-110.516,30.781],[-110.51,30.8],[-110.523,30.813],[-110.513,30.832],[-110.507,30.848],[-110.515,30.862],[-110.496,30.868],[-110.467,30.876],[-110.446,30.887],[-110.43,30.901],[-110.421,30.918],[-110.391,30.94],[-110.388,30.961],[-110.391,30.984],[-110.372,30.988],[-110.344,30.976],[-110.327,30.978],[-110.315,30.984],[-110.28,30.995],[-110.212,31.013],[-110.16,31.009],[-110.141,31.001],[-110.103,30.997],[-110.045,31.0],[-110.04,31.006],[-110.03,31.006],[-110.02,31.006],[-110.006,31.007],[-109.986,31.009],[-109.967,31.002],[-109.953,30.991],[-109.951,30.968],[-109.964,30.95],[-109.959,30.938],[-109.949,30.927],[-109.931,30.923],[-109.92,30.911],[-109.919,30.896],[-109.903,30.889],[-109.888,30.895],[-109.882,30.884],[-109.873,30.873],[-109.864,30.861],[-109.854,30.851],[-109.851,30.83],[-109.851,30.81],[-109.855,30.789],[-109.856,30.771],[-109.854,30.755],[-109.844,30.741],[-109.836,30.733],[-109.835,30.723],[-109.83,30.712],[-109.819,30.702],[-109.814,30.687],[-109.802,30.674],[-109.796,30.661],[-109.788,30.644],[-109.779,30.631],[-109.77,30.617],[-109.768,30.6],[-109.756,30.585],[-109.76,30.57],[-109.756,30.556],[-109.743,30.541],[-109.723,30.529],[-109.698,30.535],[-109.669,30.529],[-109.649,30.514],[-109.65,30.478],[-109.636,30.467],[-109.605,30.457],[-109.589,30.459],[-109.586,30.474],[-109.572,30.486],[-109.573,30.5],[-109.567,30.508],[-109.548,30.504],[-109.536,30.518],[-109.538,30.535],[-109.552,30.547],[-109.557,30.565],[-109.567,30.57],[-109.567,30.586],[-109.581,30.608],[-109.563,30.619],[-109.55,30.629],[-109.537,30.64],[-109.517,30.645],[-109.519,30.669],[-109.519,30.692],[-109.528,30.706],[-109.518,30.716],[-109.5,30.729],[-109.497,30.752],[-109.502,30.767],[-109.498,30.782],[-109.492,30.802],[-109.479,30.82],[-109.454,30.818],[-109.434,30.824],[-109.424,30.847],[-109.405,30.845],[-109.393,30.83],[-109.377,30.836],[-109.358,30.848],[-109.339,30.849],[-109.316,30.844],[-109.288,30.841],[-109.235,30.816],[-109.197,30.848],[-109.158,30.865],[-109.128,30.876],[-109.101,30.912],[-109.07,30.91],[-109.055,30.906],[-109.049,30.912],[-109.045,30.923],[-109.049,30.932],[-109.048,30.946],[-109.038,30.956],[-109.03,30.974],[-109.013,30.975],[-109.0,30.991],[-108.98,31.0],[-108.964,31.015],[-108.948,31.03],[-108.919,31.03],[-108.901,31.021],[-108.889,31.029],[-108.878,31.023],[-108.862,31.013],[-108.853,31.028],[-108.835,31.038],[-108.837,31.051],[-108.837,31.066],[-108.838,31.079],[-108.844,31.1],[-108.848,31.12],[-108.849,31.133],[-108.845,31.148],[-108.84,31.163],[-108.826,31.179],[-108.816,31.192],[-108.799,31.196],[-108.808,31.217],[-108.807,31.231],[-108.803,31.255],[-108.78,31.267],[-108.775,31.282],[-108.774,31.295],[-108.771,31.31],[-108.758,31.331],[-108.753,31.349],[-108.75,31.362],[-108.753,31.374],[-108.75,31.391],[-108.742,31.406],[-108.75,31.426],[-108.762,31.441],[-108.776,31.45],[-108.773,31.467],[-108.776,31.484],[-108.773,31.501],[-108.78,31.518],[-108.779,31.536],[-108.784,31.553],[-108.772,31.555],[-108.758,31.542],[-108.743,31.543],[-108.727,31.544],[-108.711,31.548],[-108.694,31.548],[-108.7,31.567],[-108.686,31.582],[-108.674,31.594],[-108.661,31.607],[-108.674,31.608],[-108.693,31.609],[-108.71,31.613],[-108.71,31.626],[-108.707,31.639],[-108.698,31.651],[-108.683,31.658],[-108.681,31.674],[-108.67,31.687],[-108.666,31.699],[-108.679,31.71],[-108.679,31.725],[-108.691,31.738],[-108.689,31.752],[-108.696,31.764],[-108.698,31.781],[-108.701,31.797],[-108.695,31.813],[-108.696,31.827],[-108.703,31.844],[-108.705,31.861],[-108.702,31.876],[-108.719,31.884],[-108.723,31.895],[-108.713,31.913],[-108.708,31.929],[-108.697,31.951],[-108.687,31.974],[-108.684,31.989],[-108.691,32.014],[-108.702,32.033],[-108.709,32.051],[-108.705,32.067],[-108.707,32.084],[-108.708,32.099],[-108.693,32.097],[-108.673,32.096],[-108.653,32.088],[-108.625,32.089],[-108.597,32.094],[-108.576,32.092],[-108.561,32.1],[-108.548,32.086],[-108.542,32.078],[-108.521,32.076],[-108.513,32.059],[-108.517,32.044],[-108.506,32.03],[-108.494,32.021],[-108.485,32.007],[-108.467,31.998],[-108.462,31.983],[-108.443,31.979],[-108.444,31.958],[-108.431,31.957],[-108.404,31.975],[-108.353,31.99],[-108.323,31.993],[-108.305,31.983],[-108.277,31.987],[-108.259,31.987],[-108.243,31.992],[-108.226,32.002],[-108.212,31.992],[-108.202,31.975],[-108.188,31.976],[-108.183,31.99],[-108.2,32.0],[-108.192,32.013],[-108.174,32.026],[-108.178,32.038],[-108.188,32.055],[-108.199,32.067],[-108.206,32.085],[-108.216,32.098],[-108.217,32.112],[-108.208,32.13],[-108.207,32.159],[-108.209,32.191],[-108.205,32.223],[-108.208,32.252],[-108.204,32.277],[-108.202,32.302],[-108.21,32.325],[-108.224,32.349],[-108.234,32.369],[-108.243,32.389],[-108.262,32.406],[-108.284,32.422],[-108.309,32.433],[-108.325,32.448],[-108.338,32.467],[-108.359,32.477],[-108.379,32.491],[-108.395,32.502],[-108.408,32.517],[-108.421,32.532],[-108.433,32.548],[-108.433,32.565],[-108.43,32.576],[-108.432,32.59],[-108.415,32.599],[-108.402,32.61],[-108.389,32.623],[-108.369,32.626],[-108.353,32.635],[-108.346,32.649],[-108.346,32.664],[-108.352,32.679],[-108.353,32.695],[-108.353,32.71],[-108.343,32.722],[-108.337,32.734],[-108.329,32.75],[-108.328,32.766],[-108.328,32.783],[-108.327,32.799],[-108.339,32.804],[-108.349,32.813],[-108.354,32.833],[-108.34,32.835],[-108.319,32.84],[-108.314,32.853],[-108.296,32.851],[-108.285,32.864],[-108.265,32.864],[-108.248,32.861],[-108.231,32.855],[-108.216,32.87],[-108.203,32.883],[-108.186,32.887],[-108.173,32.9],[-108.162,32.91],[-108.157,32.921],[-108.138,32.918],[-108.123,32.929],[-108.105,32.922],[-108.098,32.938],[-108.1,32.957],[-108.082,32.971],[-108.062,32.976],[-108.049,32.991],[-108.037,33.01],[-108.014,33.024],[-108.0,33.047],[-107.989,33.063],[-107.978,33.08],[-107.966,33.093],[-107.953,33.099],[-107.934,33.101],[-107.917,33.11],[-107.902,33.124],[-107.885,33.13],[-107.868,33.141],[-107.855,33.149],[-107.856,33.166],[-107.841,33.176],[-107.848,33.185],[-107.86,33.191],[-107.869,33.203],[-107.857,33.219],[-107.842,33.234],[-107.83,33.249],[-107.827,33.269],[-107.82,33.287],[-107.828,33.304],[-107.842,33.321],[-107.843,33.342],[-107.83,33.357],[-107.819,33.367],[-107.83,33.373],[-107.852,33.389],[-107.846,33.408],[-107.849,33.421],[-107.868,33.434],[-107.863,33.456],[-107.848,33.473],[-107.836,33.494],[-107.826,33.514],[-107.803,33.52],[-107.806,33.543],[-107.808,33.565],[-107.804,33.584],[-107.798,33.603],[-107.823,33.622],[-107.817,33.644],[-107.793,33.661],[-107.805,33.678],[-107.786,33.7],[-107.806,33.704],[-107.831,33.713],[-107.84,33.729],[-107.859,33.733],[-107.877,33.724],[-107.896,33.716],[-107.918,33.719],[-107.932,33.734],[-107.957,33.742],[-107.985,33.743],[-108.015,33.738],[-107.999,33.721],[-108.001,33.702],[-108.016,33.685],[-108.069,33.683],[-108.098,33.677],[-108.125,33.676],[-108.15,33.678],[-108.173,33.676],[-108.192,33.667],[-108.214,33.664],[-108.233,33.66],[-108.249,33.651],[-108.262,33.646],[-108.281,33.639],[-108.289,33.623],[-108.304,33.61],[-108.321,33.608],[-108.342,33.607],[-108.36,33.599],[-108.377,33.583],[-108.39,33.566],[-108.406,33.556],[-108.42,33.572],[-108.441,33.576],[-108.462,33.578],[-108.483,33.575],[-108.497,33.589],[-108.514,33.601],[-108.506,33.608],[-108.483,33.601],[-108.46,33.613],[-108.429,33.636],[-108.439,33.655],[-108.462,33.666],[-108.49,33.68],[-108.482,33.696],[-108.461,33.712],[-108.446,33.726],[-108.445,33.744],[-108.466,33.751],[-108.486,33.751],[-108.476,33.772],[-108.478,33.787],[-108.469,33.794],[-108.471,33.813],[-108.444,33.818],[-108.42,33.83],[-108.43,33.847],[-108.448,33.861],[-108.447,33.874],[-108.448,33.889],[-108.455,33.904],[-108.428,33.906],[-108.411,33.91],[-108.409,33.927],[-108.417,33.943],[-108.416,33.966],[-108.413,33.988],[-108.407,34.009],[-108.391,34.014],[-108.384,34.027],[-108.357,34.035],[-108.332,34.044],[-108.311,34.05],[-108.292,34.059],[-108.271,34.075],[-108.256,34.084],[-108.247,34.104],[-108.237,34.111],[-108.221,34.116],[-108.217,34.137],[-108.216,34.155],[-108.19,34.157],[-108.183,34.173],[-108.175,34.188],[-108.166,34.207],[-108.155,34.228],[-108.138,34.241],[-108.121,34.256],[-108.114,34.27],[-108.105,34.285],[-108.088,34.295],[-108.071,34.306],[-108.052,34.315],[-108.041,34.327],[-108.051,34.326],[-108.07,34.328],[-108.088,34.341],[-108.1,34.357],[-108.121,34.361],[-108.137,34.366],[-108.143,34.373],[-108.16,34.384],[-108.165,34.4],[-108.169,34.417],[-108.177,34.43],[-108.191,34.442],[-108.209,34.435],[-108.227,34.43],[-108.242,34.432],[-108.257,34.442],[-108.273,34.446],[-108.288,34.456],[-108.296,34.469],[-108.302,34.486],[-108.295,34.501],[-108.309,34.51],[-108.322,34.52],[-108.315,34.535],[-108.312,34.555],[-108.324,34.562],[-108.345,34.554],[-108.367,34.55],[-108.388,34.552],[-108.401,34.56],[-108.406,34.573],[-108.407,34.586],[-108.41,34.598],[-108.409,34.611],[-108.413,34.628],[-108.4,34.646],[-108.39,34.657],[-108.38,34.672],[-108.36,34.676],[-108.347,34.669],[-108.334,34.659],[-108.325,34.668],[-108.318,34.686],[-108.323,34.696],[-108.324,34.711],[-108.321,34.73],[-108.323,34.751],[-108.327,34.761],[-108.319,34.777],[-108.305,34.787],[-108.294,34.788],[-108.286,34.802],[-108.272,34.81],[-108.261,34.823],[-108.243,34.826],[-108.231,34.839],[-108.231,34.851],[-108.231,34.865],[-108.222,34.878],[-108.218,34.895],[-108.204,34.91],[-108.192,34.921],[-108.175,34.92],[-108.178,34.938],[-108.165,34.946],[-108.155,34.96],[-108.145,34.977],[-108.13,34.988],[-108.11,34.99],[-108.092,34.996],[-108.078,35.009],[-108.092,35.024],[-108.111,35.031],[-108.127,35.042],[-108.142,35.055],[-108.157,35.062],[-108.16,35.072],[-108.172,35.085],[-108.184,35.097],[-108.195,35.11],[-108.2,35.128],[-108.224,35.131],[-108.244,35.142],[-108.262,35.153],[-108.287,35.159],[-108.314,35.167],[-108.333,35.174],[-108.348,35.179],[-108.368,35.192],[-108.36,35.205],[-108.367,35.225],[-108.364,35.246],[-108.386,35.255],[-108.378,35.27],[-108.38,35.281],[-108.375,35.297],[-108.366,35.315],[-108.374,35.329],[-108.392,35.339],[-108.381,35.353],[-108.361,35.361],[-108.347,35.374],[-108.333,35.376],[-108.319,35.39],[-108.315,35.408],[-108.304,35.426],[-108.279,35.44],[-108.264,35.453],[-108.246,35.459],[-108.246,35.471],[-108.248,35.483],[-108.241,35.495],[-108.223,35.51],[-108.203,35.525],[-108.193,35.544],[-108.182,35.559],[-108.177,35.576],[-108.161,35.581],[-108.149,35.599],[-108.135,35.611],[-108.152,35.618],[-108.15,35.642],[-108.175,35.646],[-108.2,35.648],[-108.217,35.638],[-108.24,35.644],[-108.253,35.661],[-108.273,35.668],[-108.295,35.653],[-108.32,35.646],[-108.339,35.649],[-108.358,35.659],[-108.358,35.677],[-108.382,35.682],[-108.412,35.677],[-108.44,35.686],[-108.456,35.696],[-108.479,35.697],[-108.501,35.695],[-108.52,35.689],[-108.535,35.692],[-108.542,35.703],[-108.564,35.702],[-108.585,35.702],[-108.601,35.695],[-108.619,35.686],[-108.622,35.674],[-108.646,35.673],[-108.664,35.661],[-108.671,35.648],[-108.678,35.632],[-108.688,35.615],[-108.697,35.602],[-108.713,35.601],[-108.721,35.616],[-108.734,35.623],[-108.735,35.639],[-108.749,35.644],[-108.766,35.643],[-108.778,35.655],[-108.789,35.655],[-108.804,35.665],[-108.825,35.668],[-108.837,35.678],[-108.856,35.676],[-108.869,35.681],[-108.877,35.691],[-108.896,35.694],[-108.912,35.698],[-108.913,35.715],[-108.918,35.729],[-108.92,35.743],[-108.928,35.754],[-108.938,35.765],[-108.943,35.779],[-108.958,35.791],[-108.956,35.81],[-108.952,35.828],[-108.957,35.847],[-108.937,35.859],[-108.919,35.861],[-108.908,35.887],[-108.898,35.902],[-108.876,35.908],[-108.849,35.907],[-108.842,35.919],[-108.855,35.926],[-108.845,35.941],[-108.833,35.948],[-108.829,35.961],[-108.833,35.976],[-108.829,35.99],[-108.845,35.995],[-108.856,36.005],[-108.863,36.014],[-108.849,36.026],[-108.839,36.04],[-108.84,36.057],[-108.857,36.064],[-108.864,36.063],[-108.873,36.064],[-108.883,36.065],[-108.893,36.064],[-108.892,36.055],[-108.895,36.048],[-108.904,36.033],[-108.906,36.025],[-108.911,36.019],[-108.918,36.011],[-108.927,36.002],[-108.933,36.0],[-108.94,35.999],[-108.946,35.991],[-108.947,35.986],[-108.955,35.985],[-108.96,35.985],[-108.967,35.983],[-108.973,35.981],[-108.978,35.982],[-108.98,35.985],[-108.986,35.988],[-108.992,35.989],[-108.999,35.985],[-109.008,35.988],[-109.021,35.987],[-109.023,35.991],[-109.02,36.001],[-109.032,36.015],[-109.041,36.029],[-109.06,36.029],[-109.087,36.015],[-109.099,36.005],[-109.095,36.0],[-109.092,35.987],[-109.099,35.979],[-109.107,35.965],[-109.122,35.95],[-109.141,35.942],[-109.16,35.939],[-109.169,35.926],[-109.192,35.906],[-109.202,35.889],[-109.215,35.885],[-109.236,35.889],[-109.253,35.886],[-109.263,35.889],[-109.271,35.898],[-109.288,35.894],[-109.314,35.893],[-109.326,35.896],[-109.346,35.895],[-109.359,35.883],[-109.379,35.871],[-109.394,35.859],[-109.41,35.843],[-109.419,35.833],[-109.43,35.824],[-109.445,35.818],[-109.46,35.821],[-109.479,35.811],[-109.492,35.802],[-109.505,35.795],[-109.513,35.795],[-109.519,35.798],[-109.535,35.804],[-109.546,35.819],[-109.557,35.804],[-109.563,35.792],[-109.576,35.782],[-109.576,35.775],[-109.589,35.765],[-109.602,35.758],[-109.616,35.749],[-109.624,35.742],[-109.648,35.745],[-109.658,35.747],[-109.661,35.754],[-109.663,35.768],[-109.665,35.767],[-109.675,35.764],[-109.681,35.758],[-109.689,35.75],[-109.7,35.737],[-109.718,35.739],[-109.719,35.753],[-109.727,35.757],[-109.741,35.758],[-109.755,35.751],[-109.764,35.765],[-109.774,35.766],[-109.784,35.77],[-109.79,35.773],[-109.792,35.784],[-109.795,35.786],[-109.804,35.798],[-109.815,35.794],[-109.832,35.8],[-109.844,35.804],[-109.846,35.815],[-109.857,35.821],[-109.854,35.833],[-109.856,35.846],[-109.855,35.852],[-109.835,35.855],[-109.832,35.862],[-109.835,35.871],[-109.835,35.873],[-109.841,35.883],[-109.854,35.894],[-109.857,35.9],[-109.865,35.922],[-109.868,35.932],[-109.869,35.945],[-109.878,35.966],[-109.885,35.974],[-109.89,35.985],[-109.898,35.993],[-109.901,36.0],[-109.901,36.013],[-109.905,36.02],[-109.907,36.029],[-109.917,36.033],[-109.926,36.034],[-109.932,36.039],[-109.942,36.04],[-109.947,36.042],[-109.95,36.05],[-109.95,36.058],[-109.954,36.072],[-109.955,36.088],[-109.959,36.094],[-109.958,36.104],[-109.957,36.109],[-109.952,36.114],[-109.941,36.12],[-109.935,36.122],[-109.929,36.127],[-109.926,36.132],[-109.915,36.143],[-109.918,36.154],[-109.907,36.161],[-109.899,36.168],[-109.889,36.176],[-109.884,36.186],[-109.877,36.189],[-109.865,36.197],[-109.857,36.2],[-109.849,36.212],[-109.848,36.23],[-109.834,36.243],[-109.828,36.254],[-109.813,36.264],[-109.811,36.278],[-109.809,36.296],[-109.811,36.303],[-109.82,36.314],[-109.826,36.322],[-109.827,36.331],[-109.829,36.342],[-109.833,36.355],[-109.839,36.367],[-109.836,36.376],[-109.84,36.378],[-109.846,36.379],[-109.854,36.378],[-109.867,36.377],[-109.876,36.373],[-109.887,36.385],[-109.903,36.387],[-109.914,36.384],[-109.924,36.392],[-109.931,36.402],[-109.929,36.412],[-109.933,36.422],[-109.951,36.422],[-109.961,36.435],[-109.974,36.446],[-109.993,36.453],[-110.009,36.459],[-110.01,36.467],[-110.019,36.471],[-110.028,36.476],[-110.037,36.481],[-110.037,36.465],[-110.049,36.459],[-110.059,36.465],[-110.057,36.456],[-110.067,36.454],[-110.078,36.459],[-110.085,36.467],[-110.099,36.469],[-110.123,36.469],[-110.139,36.476],[-110.153,36.485],[-110.173,36.493],[-110.185,36.509],[-110.197,36.517],[-110.208,36.53],[-110.214,36.534],[-110.214,36.544],[-110.211,36.557],[-110.206,36.576],[-110.214,36.588],[-110.229,36.59],[-110.239,36.601],[-110.241,36.612],[-110.242,36.62],[-110.248,36.629],[-110.256,36.638],[-110.259,36.649],[-110.268,36.651],[-110.28,36.648],[-110.292,36.647],[-110.303,36.646],[-110.311,36.647],[-110.319,36.653],[-110.326,36.658],[-110.332,36.659],[-110.345,36.651],[-110.358,36.647],[-110.369,36.65],[-110.397,36.65],[-110.409,36.643],[-110.419,36.634],[-110.429,36.627],[-110.448,36.616],[-110.457,36.598],[-110.463,36.579],[-110.477,36.552],[-110.495,36.553],[-110.5,36.562],[-110.493,36.585],[-110.499,36.607],[-110.508,36.617],[-110.511,36.632],[-110.516,36.644],[-110.514,36.657],[-110.518,36.662],[-110.525,36.67],[-110.541,36.671],[-110.543,36.683],[-110.55,36.685],[-110.555,36.689],[-110.553,36.701],[-110.562,36.71],[-110.574,36.719],[-110.584,36.731],[-110.583,36.743],[-110.573,36.757],[-110.565,36.769],[-110.575,36.778],[-110.575,36.79],[-110.586,36.793],[-110.602,36.786],[-110.612,36.774],[-110.628,36.78],[-110.644,36.792],[-110.666,36.779],[-110.674,36.767],[-110.677,36.753],[-110.685,36.742],[-110.69,36.731],[-110.699,36.721],[-110.707,36.712],[-110.719,36.699],[-110.726,36.689],[-110.738,36.684],[-110.753,36.669],[-110.765,36.663],[-110.781,36.653],[-110.797,36.643],[-110.801,36.629],[-110.805,36.618],[-110.806,36.606],[-110.818,36.605],[-110.84,36.605],[-110.853,36.595],[-110.867,36.589],[-110.884,36.585],[-110.898,36.59],[-110.908,36.59],[-110.917,36.592],[-110.93,36.589],[-110.932,36.582],[-110.934,36.576],[-110.934,36.569],[-110.939,36.561],[-110.946,36.556],[-110.955,36.55],[-110.958,36.542],[-110.976,36.535],[-110.99,36.529],[-111.0,36.532],[-111.01,36.53],[-111.018,36.523],[-111.033,36.514],[-111.048,36.505],[-111.061,36.502],[-111.075,36.501],[-111.088,36.5],[-111.103,36.508],[-111.112,36.52],[-111.125,36.525],[-111.136,36.526],[-111.145,36.524],[-111.147,36.531],[-111.145,36.546],[-111.147,36.549],[-111.149,36.546],[-111.153,36.542],[-111.16,36.543],[-111.163,36.538],[-111.167,36.537],[-111.172,36.534],[-111.179,36.536],[-111.188,36.539],[-111.197,36.535],[-111.207,36.533],[-111.213,36.534],[-111.22,36.535],[-111.227,36.537],[-111.233,36.535],[-111.239,36.538],[-111.25,36.542],[-111.259,36.54],[-111.267,36.53],[-111.28,36.538],[-111.289,36.535],[-111.283,36.526],[-111.287,36.519],[-111.3,36.522],[-111.308,36.53],[-111.315,36.522],[-111.312,36.514],[-111.319,36.506],[-111.324,36.504],[-111.33,36.51],[-111.328,36.517],[-111.335,36.522],[-111.337,36.53],[-111.34,36.537],[-111.344,36.539],[-111.352,36.535],[-111.356,36.528],[-111.364,36.524],[-111.368,36.523],[-111.374,36.534],[-111.376,36.542],[-111.378,36.551],[-111.381,36.558],[-111.385,36.565],[-111.389,36.574],[-111.393,36.582],[-111.395,36.591],[-111.399,36.597],[-111.41,36.599],[-111.418,36.602],[-111.423,36.612],[-111.425,36.619],[-111.434,36.627],[-111.446,36.628],[-111.455,36.628],[-111.469,36.623],[-111.478,36.618],[-111.478,36.609],[-111.487,36.604],[-111.495,36.598],[-111.508,36.588],[-111.514,36.578],[-111.522,36.569],[-111.528,36.561],[-111.531,36.551],[-111.54,36.546],[-111.543,36.539],[-111.549,36.529],[-111.561,36.532],[-111.563,36.539],[-111.559,36.55],[-111.559,36.559],[-111.563,36.573],[-111.562,36.582],[-111.563,36.588],[-111.576,36.588],[-111.576,36.594],[-111.573,36.599],[-111.56,36.611],[-111.556,36.62],[-111.56,36.631],[-111.568,36.635],[-111.582,36.634],[-111.589,36.646],[-111.602,36.654],[-111.615,36.661],[-111.628,36.686],[-111.632,36.699],[-111.625,36.705],[-111.618,36.704],[-111.615,36.713],[-111.612,36.726],[-111.609,36.733],[-111.604,36.74],[-111.607,36.745],[-111.604,36.751],[-111.6,36.757],[-111.594,36.765],[-111.594,36.775],[-111.592,36.787],[-111.591,36.797],[-111.589,36.808],[-111.587,36.819],[-111.59,36.826],[-111.588,36.834],[-111.589,36.839],[-111.592,36.849],[-111.59,36.862],[-111.602,36.859],[-111.627,36.869],[-111.635,36.874],[-111.638,36.88],[-111.642,36.882],[-111.647,36.885],[-111.652,36.887],[-111.664,36.88],[-111.672,36.869],[-111.677,36.857],[-111.684,36.855],[-111.692,36.85],[-111.705,36.846],[-111.709,36.838],[-111.722,36.828],[-111.735,36.822],[-111.749,36.812],[-111.757,36.802],[-111.768,36.789],[-111.774,36.784],[-111.782,36.772],[-111.789,36.771],[-111.793,36.764],[-111.792,36.756],[-111.8,36.75],[-111.807,36.739],[-111.809,36.733],[-111.822,36.727],[-111.831,36.724],[-111.845,36.719],[-111.853,36.725],[-111.863,36.731],[-111.872,36.739],[-111.883,36.738],[-111.904,36.75],[-111.908,36.757],[-111.909,36.763],[-111.934,36.765],[-111.938,36.76],[-111.951,36.764],[-111.964,36.764],[-111.972,36.763],[-111.98,36.763],[-111.987,36.761],[-112.001,36.763],[-112.01,36.764],[-112.018,36.769],[-112.023,36.777],[-112.028,36.785],[-112.042,36.811],[-112.049,36.832],[-112.076,36.848],[-112.089,36.855],[-112.097,36.863],[-112.11,36.862],[-112.118,36.888],[-112.118,36.909],[-112.126,36.937],[-112.112,36.962],[-112.119,37.003],[-112.102,37.017],[-112.123,37.046],[-112.156,37.066],[-112.18,37.076],[-112.192,37.099],[-112.209,37.108],[-112.22,37.116],[-112.224,37.134],[-112.21,37.158],[-112.205,37.176],[-112.217,37.197],[-112.24,37.217],[-112.232,37.231],[-112.248,37.247],[-112.276,37.26],[-112.281,37.283],[-112.278,37.308],[-112.295,37.325],[-112.314,37.325],[-112.306,37.341],[-112.3,37.348],[-112.299,37.359],[-112.299,37.371],[-112.316,37.383],[-112.316,37.398],[-112.328,37.412],[-112.329,37.417],[-112.35,37.42],[-112.373,37.405],[-112.393,37.41],[-112.398,37.418],[-112.39,37.429],[-112.4,37.437],[-112.387,37.451],[-112.381,37.466],[-112.375,37.48],[-112.381,37.498],[-112.394,37.497],[-112.41,37.495],[-112.427,37.494],[-112.446,37.487],[-112.462,37.48],[-112.476,37.472],[-112.492,37.478],[-112.503,37.486],[-112.514,37.491],[-112.532,37.487],[-112.543,37.496],[-112.559,37.496],[-112.57,37.484],[-112.584,37.472],[-112.603,37.466],[-112.617,37.456],[-112.625,37.442],[-112.641,37.431],[-112.643,37.413],[-112.654,37.416],[-112.672,37.418],[-112.686,37.419],[-112.695,37.416],[-112.703,37.422],[-112.712,37.429],[-112.711,37.44],[-112.717,37.457],[-112.721,37.472],[-112.728,37.484],[-112.739,37.496],[-112.754,37.504],[-112.779,37.513],[-112.806,37.512],[-112.819,37.521],[-112.821,37.538],[-112.838,37.557],[-112.856,37.573],[-112.867,37.59],[-112.878,37.585],[-112.895,37.582],[-112.911,37.57],[-112.94,37.57],[-112.955,37.588],[-112.973,37.595],[-112.987,37.581],[-112.999,37.567],[-113.009,37.554],[-113.029,37.549],[-113.048,37.56],[-113.063,37.551],[-113.071,37.535],[-113.081,37.528],[-113.097,37.544],[-113.116,37.554],[-113.131,37.554],[-113.145,37.548],[-113.154,37.547],[-113.159,37.556],[-113.199,37.562],[-113.229,37.552],[-113.241,37.546],[-113.25,37.541],[-113.257,37.539],[-113.265,37.539],[-113.271,37.541],[-113.276,37.545],[-113.282,37.55],[-113.289,37.552],[-113.291,37.556],[-113.298,37.556],[-113.305,37.563],[-113.31,37.567],[-113.31,37.574],[-113.315,37.58],[-113.323,37.583],[-113.331,37.583],[-113.342,37.584],[-113.346,37.579],[-113.346,37.572],[-113.354,37.572],[-113.354,37.568],[-113.356,37.563],[-113.359,37.558],[-113.363,37.557],[-113.364,37.553],[-113.36,37.549],[-113.359,37.545],[-113.361,37.541],[-113.364,37.538],[-113.366,37.535],[-113.368,37.53],[-113.373,37.529],[-113.378,37.528],[-113.379,37.516],[-113.388,37.513],[-113.396,37.513],[-113.403,37.509],[-113.411,37.505],[-113.418,37.503],[-113.424,37.5],[-113.43,37.494],[-113.44,37.491],[-113.447,37.478],[-113.456,37.465],[-113.466,37.461],[-113.483,37.458],[-113.498,37.465],[-113.523,37.468],[-113.536,37.463],[-113.553,37.457],[-113.572,37.459],[-113.58,37.466],[-113.581,37.477],[-113.584,37.488],[-113.596,37.496],[-113.614,37.497],[-113.642,37.502],[-113.65,37.51],[-113.658,37.511],[-113.668,37.507],[-113.67,37.502],[-113.677,37.489],[-113.689,37.486],[-113.701,37.476],[-113.711,37.471],[-113.723,37.472],[-113.736,37.468],[-113.75,37.476],[-113.751,37.489],[-113.76,37.499],[-113.777,37.505],[-113.796,37.508],[-113.814,37.513],[-113.82,37.498],[-113.825,37.486],[-113.832,37.485],[-113.84,37.477],[-113.851,37.475],[-113.862,37.472],[-113.872,37.474],[-113.882,37.472],[-113.889,37.468],[-113.898,37.467],[-113.907,37.474],[-113.918,37.476],[-113.931,37.487],[-113.941,37.496],[-113.946,37.507],[-113.956,37.514],[-113.971,37.524],[-113.987,37.535],[-113.986,37.556],[-113.987,37.572],[-114.006,37.584],[-114.025,37.587],[-114.042,37.59],[-114.06,37.605],[-114.051,37.613],[-114.042,37.633],[-114.052,37.651],[-114.069,37.657],[-114.082,37.666],[-114.094,37.667],[-114.111,37.666],[-114.126,37.662],[-114.142,37.644],[-114.162,37.66],[-114.183,37.671],[-114.202,37.686],[-114.209,37.698],[-114.218,37.703],[-114.224,37.712],[-114.215,37.719],[-114.216,37.731],[-114.211,37.74],[-114.206,37.75],[-114.199,37.756],[-114.195,37.764],[-114.187,37.772],[-114.189,37.786],[-114.172,37.789],[-114.16,37.788],[-114.145,37.796],[-114.138,37.809],[-114.126,37.815],[-114.122,37.827],[-114.123,37.838],[-114.123,37.849],[-114.122,37.864],[-114.121,37.886],[-114.103,37.897],[-114.08,37.911],[-114.067,37.92],[-114.057,37.923],[-114.053,37.932],[-114.044,37.938],[-114.045,37.947],[-114.041,37.954],[-114.041,37.962],[-114.051,37.967],[-114.054,37.977],[-114.054,37.987],[-114.061,37.996],[-114.062,38.009],[-114.057,38.021],[-114.046,38.029],[-114.046,38.041],[-114.048,38.054],[-114.056,38.063],[-114.052,38.075],[-114.048,38.087],[-114.047,38.103],[-114.053,38.113],[-114.056,38.125],[-114.061,38.134],[-114.066,38.147],[-114.066,38.171],[-114.076,38.186],[-114.08,38.209],[-114.082,38.23],[-114.101,38.247],[-114.109,38.264],[-114.12,38.28],[-114.133,38.291],[-114.149,38.295],[-114.181,38.301],[-114.209,38.303],[-114.235,38.303],[-114.252,38.316],[-114.262,38.344],[-114.28,38.369],[-114.308,38.377],[-114.322,38.375],[-114.337,38.35],[-114.343,38.334],[-114.34,38.313],[-114.339,38.293],[-114.356,38.278],[-114.356,38.256],[-114.376,38.232],[-114.393,38.254],[-114.4,38.274],[-114.426,38.276],[-114.448,38.281],[-114.499,38.277],[-114.551,38.276],[-114.586,38.269],[-114.621,38.273],[-114.628,38.289],[-114.642,38.296],[-114.645,38.278],[-114.652,38.263],[-114.645,38.247],[-114.653,38.229],[-114.672,38.209],[-114.664,38.197],[-114.649,38.186],[-114.637,38.174],[-114.64,38.156],[-114.635,38.136],[-114.628,38.123],[-114.628,38.109],[-114.618,38.095],[-114.608,38.079],[-114.599,38.055],[-114.602,38.035],[-114.595,38.015],[-114.586,37.989],[-114.59,37.969],[-114.593,37.95],[-114.586,37.932],[-114.578,37.915],[-114.579,37.897],[-114.578,37.874],[-114.561,37.86],[-114.562,37.841],[-114.587,37.836],[-114.575,37.807],[-114.566,37.789],[-114.559,37.776],[-114.566,37.758],[-114.57,37.737],[-114.555,37.719],[-114.574,37.713],[-114.61,37.711],[-114.641,37.711],[-114.661,37.68],[-114.67,37.656],[-114.681,37.643],[-114.685,37.623],[-114.686,37.609],[-114.685,37.592],[-114.703,37.587],[-114.717,37.578],[-114.717,37.561],[-114.721,37.542],[-114.733,37.526],[-114.72,37.516],[-114.713,37.498],[-114.705,37.48],[-114.694,37.464],[-114.69,37.444],[-114.696,37.424],[-114.706,37.405],[-114.718,37.391],[-114.723,37.372],[-114.726,37.35],[-114.74,37.336],[-114.756,37.32],[-114.763,37.307],[-114.761,37.292],[-114.769,37.275],[-114.78,37.264],[-114.797,37.245],[-114.815,37.245],[-114.842,37.255],[-114.865,37.261],[-114.894,37.261],[-114.913,37.265],[-114.936,37.249],[-114.959,37.261],[-114.967,37.278],[-114.987,37.287],[-114.986,37.304],[-114.974,37.321],[-114.983,37.349],[-114.987,37.358],[-114.98,37.382],[-114.994,37.4],[-115.007,37.417],[-115.014,37.436],[-115.021,37.453],[-115.029,37.476],[-115.03,37.491],[-115.032,37.503],[-115.031,37.518],[-115.031,37.532],[-115.027,37.544],[-115.026,37.558],[-115.019,37.57],[-115.016,37.584],[-115.012,37.595],[-115.002,37.612],[-114.994,37.628],[-114.967,37.659],[-114.952,37.672],[-114.948,37.692],[-114.955,37.708],[-114.944,37.726],[-114.941,37.735],[-114.933,37.747],[-114.937,37.766],[-114.939,37.782],[-114.938,37.795],[-114.943,37.821],[-114.941,37.847],[-114.935,37.867],[-114.929,37.888],[-114.929,37.904],[-114.933,37.924],[-114.925,37.937],[-114.91,37.951],[-114.898,37.966],[-114.897,37.981],[-114.911,37.994],[-114.908,38.012],[-114.905,38.027],[-114.899,38.043],[-114.899,38.059],[-114.906,38.074],[-114.913,38.101],[-114.916,38.125],[-114.912,38.14],[-114.922,38.158],[-114.926,38.178],[-114.929,38.189],[-114.913,38.197],[-114.895,38.209],[-114.892,38.227],[-114.89,38.249],[-114.897,38.264],[-114.918,38.277],[-114.935,38.296],[-114.957,38.31],[-114.965,38.329],[-114.966,38.347],[-114.948,38.356],[-114.942,38.376],[-114.946,38.4],[-114.959,38.414],[-114.965,38.427],[-114.953,38.444],[-114.944,38.463],[-114.94,38.481],[-114.925,38.497],[-114.913,38.507],[-114.899,38.52],[-114.892,38.54],[-114.903,38.563],[-114.916,38.578],[-114.934,38.589],[-114.949,38.607],[-114.961,38.628],[-114.967,38.652],[-114.968,38.672],[-114.958,38.687],[-114.951,38.702],[-114.938,38.718],[-114.928,38.732],[-114.928,38.754],[-114.936,38.774],[-114.934,38.791],[-114.92,38.811],[-114.919,38.83],[-114.919,38.849],[-114.908,38.866],[-114.907,38.887],[-114.883,38.897],[-114.877,38.913],[-114.895,38.935],[-114.883,38.952],[-114.882,38.979],[-114.889,39.002],[-114.904,39.018],[-114.901,39.04],[-114.895,39.059],[-114.909,39.082],[-114.922,39.103],[-114.939,39.127],[-114.942,39.153],[-114.939,39.181],[-114.959,39.203],[-114.994,39.232],[-115.013,39.254],[-115.035,39.251],[-115.037,39.267],[-115.054,39.282],[-115.079,39.301]]]}}]}